{"type": "FeatureCollection", "features": [{"type": "Feature", "properties": {"name": "الحي 39", "area": 11043696.1}, "geometry": {"type": "Polygon", "coordinates": [[[31.5364409016, 30.279120779], [31.5368368727, 30.2637944668], [31.5370656215, 30.2604911556], [31.5365279663, 30.2604933546], [31.5357053754, 30.2600375787], [31.5356220899, 30.2599937518], [31.5355365056, 30.2599533621], [31.5354488139, 30.2599165006], [31.5353592087, 30.259883247], [31.5352678896, 30.2598536776], [31.5351750595, 30.2598278558], [31.5350809241, 30.2598058398], [31.5349856919, 30.2597876794], [31.5348895758, 30.2597734134], [31.5347927877, 30.2597630743], [31.5346955433, 30.2597566853], [31.534598059, 30.2597542598], [31.5345005496, 30.2597558039], [31.5344032333, 30.2597613137], [31.5343063257, 30.2597707776], [31.5342100416, 30.2597841738], [31.5335844405, 30.2598844032], [31.5334721412, 30.2599052637], [31.5333613484, 30.259931451], [31.533252398, 30.2599628826], [31.5331456251, 30.2599994648], [31.5330413541, 30.2600410851], [31.5329399037, 30.260087616], [31.5328415831, 30.2601389165], [31.5327466941, 30.2601948291], [31.532655525, 30.2602551829], [31.5325683543, 30.2603197942], [31.5324854478, 30.2603884657], [31.53240706, 30.2604609873], [31.5323334295, 30.2605371386], [31.5322647812, 30.2606166852], [31.5322013242, 30.2606993866], [31.531232298, 30.262162621], [31.5291228292, 30.2613747739], [31.5290372889, 30.2613447502], [31.5289502834, 30.2613180528], [31.5288619853, 30.2612947352], [31.5287725706, 30.2612748448], [31.5286822172, 30.2612584204], [31.5285911056, 30.2612454945], [31.5284994163, 30.2612360936], [31.5284073336, 30.2612302363], [31.5283150389, 30.2612279334], [31.5282227181, 30.2612291904], [31.5281305537, 30.2612340049], [31.5280387297, 30.2612423661], [31.5279474294, 30.2612542592], [31.5278568343, 30.2612696586], [31.527767125, 30.2612885349], [31.527678481, 30.26131085], [31.525024263, 30.2620347541], [31.5219952768, 30.2611995507], [31.5219939877, 30.2612030718], [31.5114769768, 30.2583024849], [31.5114783243, 30.2582989793], [31.5088746212, 30.2558935953], [31.506520109, 30.2578271841], [31.5052471729, 30.2589050401], [31.5035320402, 30.2607127711], [31.5032184051, 30.2610570085], [31.5028609959, 30.2614216216], [31.5024888302, 30.2618070539], [31.5021585853, 30.2621705073], [31.5018935167, 30.2624406848], [31.5009807035, 30.2632715908], [31.5009072994, 30.2633507938], [31.5008305474, 30.2634275938], [31.5007505533, 30.2635018838], [31.5006674259, 30.263573562], [31.5005812811, 30.26364253], [31.5004922356, 30.2637086939], [31.5004004116, 30.2637719614], [31.5003059366, 30.2638322463], [31.4991442991, 30.2645272046], [31.4981409519, 30.2650463543], [31.4944709001, 30.2669078288], [31.4940353187, 30.2671388938], [31.4938442264, 30.2672445932], [31.4936562386, 30.2673543657], [31.4934714704, 30.2674681423], [31.4932900359, 30.267585854], [31.4931836691, 30.2676646617], [31.4930802972, 30.2677463873], [31.4929800282, 30.2678309471], [31.4928829652, 30.2679182541], [31.4927892098, 30.2680082153], [31.4926988591, 30.2681007397], [31.4926120064, 30.2681957298], [31.4925287424, 30.2682930868], [31.4923156243, 30.2685024953], [31.4920973894, 30.2687079349], [31.4918741356, 30.2689093117], [31.4916459653, 30.2691065342], [31.4913089812, 30.2693830382], [31.4909623249, 30.2696504742], [31.4900615932, 30.2703986501], [31.4895179741, 30.270842022], [31.4890969562, 30.2711970002], [31.4889990111, 30.271266561], [31.4889810546, 30.2712819689], [31.4889645589, 30.2712985515], [31.4889363554, 30.2713348199], [31.4889150994, 30.2713744655], [31.488907249, 30.2713952491], [31.4888973487, 30.2714380934], [31.4888953652, 30.2714817492], [31.4889013489, 30.2715251319], [31.4889151497, 30.2715671631], [31.4890106299, 30.2719553377], [31.4890255275, 30.2720014875], [31.4890458169, 30.2720956483], [31.4890511394, 30.2721433373], [31.4890520467, 30.2722391116], [31.4890399814, 30.2723343203], [31.4890220412, 30.2724061163], [31.4878956077, 30.2737507615], [31.4872078952, 30.2745242151], [31.4871973589, 30.2745842537], [31.4871883623, 30.2746604228], [31.4871842148, 30.2747369028], [31.487184928, 30.2748134635], [31.4871905003, 30.2748898759], [31.4872009153, 30.2749659097], [31.4872161409, 30.2750413353], [31.487236132, 30.2751159267], [31.4872608285, 30.27518946], [31.4872901549, 30.2752617123], [31.4873240249, 30.2753324681], [31.4873623345, 30.2754015139], [31.4874049703, 30.275468642], [31.4874518031, 30.2755336505], [31.4875026927, 30.2755963432], [31.4875574854, 30.2756565332], [31.4884491487, 30.2765379211], [31.4884945837, 30.2766049041], [31.4885347833, 30.2766743385], [31.4885695705, 30.2767459187], [31.4885987936, 30.2768193313], [31.488622325, 30.2768942534], [31.4886400595, 30.2769703562], [31.4886519209, 30.277047307], [31.488657857, 30.2771247665], [31.4886585558, 30.2771725982], [31.4886531785, 30.2772681364], [31.4886388037, 30.2773629787], [31.4886155256, 30.2774564936], [31.4886005938, 30.2775025586], [31.5011171441, 30.2761150962], [31.5060040655, 30.2766732067], [31.5076373518, 30.276863679], [31.5111322708, 30.277277656], [31.5181706051, 30.2781046476], [31.5217476265, 30.2785177824], [31.5250946199, 30.2788342438], [31.5286415406, 30.2793205255], [31.5351451681, 30.2800818668], [31.5352219327, 30.2800885701], [31.5352990459, 30.2800907632], [31.5353901898, 30.2800875213], [31.5354771593, 30.2800784868], [31.5355630679, 30.2800637094], [31.5356474089, 30.2800432759], [31.535729682, 30.2800173074], [31.5358094021, 30.2799859566], [31.5358860967, 30.2799494098], [31.5359962724, 30.2798841288], [31.5360667335, 30.2798328789], [31.5361322117, 30.2797769178], [31.5361922866, 30.2797166055], [31.5362465709, 30.2796523289], [31.5362947161, 30.2795845025], [31.5363364123, 30.2795135628], [31.5363713918, 30.2794399653], [31.5364087024, 30.2793333869], [31.5364253275, 30.2792632453], [31.5364360786, 30.2791922542], [31.5364409016, 30.279120779]]]}}, {"type": "Feature", "properties": {"name": "حي 16", "area": 2697343.52}, "geometry": {"type": "Polygon", "coordinates": [[[31.5528813433, 30.2462050781], [31.5528278666, 30.2465003535], [31.5527123666, 30.2470896925], [31.5525854976, 30.2476772811], [31.5525178104, 30.2479703684], [31.552373956, 30.2485550247], [31.5519350544, 30.2502683377], [31.5518420258, 30.2506418573], [31.5517540654, 30.2510162904], [31.5516711869, 30.2513915865], [31.5515934009, 30.2517676936], [31.5515207173, 30.2521445605], [31.5514531478, 30.2525221344], [31.5513907005, 30.2529003649], [31.5513333844, 30.2532792], [31.5512812076, 30.2536585869], [31.5512341763, 30.2540384743], [31.5511922977, 30.2544188096], [31.5511555773, 30.2547995407], [31.5511240203, 30.2551806164], [31.5510976314, 30.2555619831], [31.5510764132, 30.255943589], [31.5510603693, 30.2563253818], [31.5510173741, 30.257545188], [31.5509906762, 30.2581270305], [31.568783351, 30.2590179963], [31.570647463, 30.2548679903], [31.570835899, 30.2544412939], [31.5710189488, 30.2540122126], [31.5712606387, 30.2534212475], [31.5713774799, 30.2531245613], [31.5715804874, 30.2525900642], [31.5716982925, 30.2522677619], [31.5719050595, 30.2516777874], [31.5720190908, 30.2513376888], [31.5721296527, 30.2509967362], [31.5717572687, 30.2509982067], [31.5713977944, 30.2509941351], [31.5710540576, 30.2509851841], [31.5706820877, 30.2509699235], [31.5703159407, 30.2509492333], [31.5699658205, 30.2509241619], [31.5696162393, 30.2508939549], [31.5692401875, 30.250855656], [31.5681658527, 30.2507127426], [31.5678037355, 30.2506532349], [31.5674429038, 30.2505881626], [31.5670834717, 30.2505175473], [31.5667255533, 30.25044141], [31.5664550373, 30.2503799598], [31.5661855077, 30.2503153599], [31.565917012, 30.250247621], [31.5656496006, 30.2501767556], [31.5653833211, 30.2501027776], [31.565118222, 30.2500256995], [31.5648543526, 30.2499455351], [31.5645917607, 30.2498623001], [31.5643304938, 30.2497760091], [31.5640705995, 30.2496866777], [31.5638121264, 30.2495943229], [31.5635551201, 30.2494989602], [31.5632996285, 30.2494006083], [31.5630456972, 30.249299285], [31.562793373, 30.2491950073], [31.56122742, 30.2485166029], [31.5610466214, 30.2484453405], [31.5608627902, 30.2483801255], [31.5607698217, 30.2483498161], [31.5605819508, 30.2482938487], [31.5603917307, 30.2482441515], [31.5601994427, 30.2482007981], [31.5600053707, 30.2481638522], [31.5598098066, 30.2481332952], [31.5578753017, 30.2478638986], [31.5577429628, 30.247841277], [31.5575370069, 30.2477998379], [31.5574067117, 30.2477696152], [31.5572669123, 30.2477336509], [31.5570595317, 30.2476733499], [31.5568417181, 30.2476007234], [31.5566543987, 30.2475302743], [31.5564704381, 30.2474535007], [31.5562901246, 30.2473705235], [31.554399268, 30.2464584187], [31.5528813433, 30.2462050781]]]}}, {"type": "Feature", "properties": {"name": "حي 15", "area": 2616101.15}, "geometry": {"type": "Polygon", "coordinates": [[[31.5721296527, 30.2509967362], [31.5720055289, 30.25099787], [31.5720882781, 30.2509971809], [31.5721296527, 30.2509967362]], [[31.5721296527, 30.2509967362], [31.5720190899, 30.2513376888], [31.5719050586, 30.2516777874], [31.571812958, 30.2519446159], [31.5716363905, 30.2524382924], [31.5714916414, 30.2528270974], [31.5713278569, 30.2532514932], [31.5711238774, 30.2537592353], [31.5710189461, 30.2540122118], [31.5708358981, 30.2544412939], [31.570647463, 30.2548679903], [31.568783351, 30.2590179963], [31.5887010868, 30.2600124855], [31.588866393, 30.2597215362], [31.588998254, 30.2594820009], [31.5892526703, 30.2589991972], [31.5895040333, 30.258450496], [31.5897421264, 30.2578973938], [31.5899668462, 30.2573401294], [31.5900741599, 30.257060012], [31.590278638, 30.2564969567], [31.5903757809, 30.2562140808], [31.5905598197, 30.2556457844], [31.5907301304, 30.2550742995], [31.5908866402, 30.2544998751], [31.591029281, 30.2539227593], [31.5911579916, 30.2533432012], [31.5912171053, 30.2530525844], [31.5913248169, 30.2524698343], [31.5914184698, 30.2518852704], [31.5914980237, 30.2512991471], [31.5915634436, 30.2507117175], [31.5915908449, 30.2504175924], [31.5916350132, 30.24982868], [31.5732832405, 30.2509553365], [31.5729951229, 30.2509709036], [31.5727067808, 30.2509829943], [31.5724182724, 30.2509916054], [31.5721296527, 30.2509967362]]]}}, {"type": "Feature", "properties": {"name": "الحي 14", "area": 3889368.45}, "geometry": {"type": "Polygon", "coordinates": [[[31.5624832036, 30.2809230465], [31.5667307024, 30.2771517529], [31.567364056, 30.2766082982], [31.5680187563, 30.2760837387], [31.5686937522, 30.2755789321], [31.5693882514, 30.2750944697], [31.5701014428, 30.2746309198], [31.5708323759, 30.2741888924], [31.571323165, 30.2739097083], [31.5741091821, 30.2723635168], [31.5709512059, 30.2691880871], [31.5701627384, 30.2684427028], [31.5700325761, 30.2683261731], [31.5692021133, 30.2676317816], [31.5691209253, 30.2675695036], [31.5682816581, 30.2669491699], [31.5681775703, 30.2668753264], [31.5671986294, 30.26623729], [31.5661395301, 30.2656313869], [31.565039649, 30.2650829672], [31.5639031212, 30.2645940902], [31.562734219, 30.264166595], [31.5615373369, 30.2638020883], [31.5603169729, 30.2635019396], [31.5590777173, 30.2632672784], [31.5578227161, 30.2630987833], [31.5518614285, 30.2624600326], [31.5504279392, 30.2623209845], [31.5503245691, 30.2627866635], [31.550213143, 30.2632509513], [31.5500936851, 30.2637137457], [31.5499662222, 30.264174942], [31.5498307832, 30.2646344368], [31.5496873977, 30.2650921272], [31.549536099, 30.2655479115], [31.5493769202, 30.2660016864], [31.5492098973, 30.266453352], [31.5490350672, 30.2669028059], [31.5488524693, 30.267349948], [31.5486621451, 30.2677946774], [31.5484641357, 30.2682368957], [31.5482584871, 30.2686765029], [31.5480452441, 30.2691134012], [31.5478244562, 30.2695474928], [31.5488492776, 30.2701731773], [31.5488332014, 30.2702023907], [31.5624832036, 30.2809230465]]]}}, {"type": "Feature", "properties": {"name": "الحي 13", "area": 3972966.39}, "geometry": {"type": "Polygon", "coordinates": [[[31.5488492776, 30.2701731773], [31.5478244562, 30.2695474928], [31.5475984868, 30.2699745961], [31.5473651817, 30.2703987447], [31.5471245922, 30.2708198456], [31.5468767713, 30.2712378049], [31.5466217737, 30.2716525303], [31.546359657, 30.2720639296], [31.5460904786, 30.2724719127], [31.5458142979, 30.2728763875], [31.5455311768, 30.2732772663], [31.5452411772, 30.2736744583], [31.544944364, 30.2740678775], [31.5446408026, 30.2744574356], [31.5443305604, 30.2748430471], [31.5440137066, 30.2752246253], [31.5436903104, 30.2756020872], [31.5433604446, 30.2759753483], [31.5430241818, 30.2763443264], [31.5426815958, 30.2767089393], [31.5423327638, 30.2770691065], [31.5419777613, 30.2774247479], [31.5416166691, 30.2777757854], [31.5412495663, 30.2781221413], [31.5408765337, 30.2784637383], [31.5404976548, 30.278800501], [31.5401130124, 30.279132355], [31.5397226935, 30.2794592268], [31.5393267835, 30.2797810441], [31.5389253695, 30.280097735], [31.5385185414, 30.2804092296], [31.5381063898, 30.2807154597], [31.5376890047, 30.2810163563], [31.5372664794, 30.2813118536], [31.5402968544, 30.2845664446], [31.5405237464, 30.2848045014], [31.5407013667, 30.2849833981], [31.5408825587, 30.2851595757], [31.5410672658, 30.2853329812], [31.5412554323, 30.2855035652], [31.5414469998, 30.285671271], [31.5416419135, 30.2858360505], [31.5418401106, 30.2859978518], [31.5420415327, 30.2861566252], [31.5422461177, 30.286312325], [31.5424538028, 30.2864649016], [31.542664526, 30.2866143083], [31.5428782209, 30.2867605003], [31.5430948244, 30.2869034334], [31.5461188052, 30.2888636374], [31.5464031597, 30.2890591769], [31.5466794797, 30.2892632082], [31.5469474265, 30.2894754831], [31.5472066758, 30.2896957455], [31.5497001574, 30.2918894197], [31.5616175906, 30.2816862054], [31.562480002, 30.2809205323], [31.5488332014, 30.2702023907], [31.5488492776, 30.2701731773]]]}}, {"type": "Feature", "properties": {"name": "حي 37", "area": 2635337.17}, "geometry": {"type": "Polygon", "coordinates": [[[31.5378125671, 30.260485448], [31.5370656215, 30.2604911556], [31.5368368727, 30.2637944668], [31.5364409016, 30.279120779], [31.5364360786, 30.2791922542], [31.5364253275, 30.2792632453], [31.5364087024, 30.2793333869], [31.5363713918, 30.2794399653], [31.5363547568, 30.279477067], [31.5363163888, 30.2795493938], [31.5362714317, 30.2796188331], [31.5362465709, 30.2796523289], [31.5361922866, 30.2797166055], [31.5361629494, 30.2797472814], [31.5361322117, 30.2797769178], [31.5360667335, 30.2798328789], [31.5360320981, 30.2798591144], [31.5359593139, 30.2799078826], [31.5372664794, 30.2813118536], [31.5377831365, 30.2809494725], [31.5382920357, 30.2805789944], [31.5386057256, 30.2803435897], [31.5389162929, 30.2801051171], [31.5392236973, 30.2798636068], [31.5395278983, 30.2796190906], [31.5398288573, 30.2793715995], [31.5401265356, 30.2791211661], [31.5404208938, 30.2788678222], [31.5407118949, 30.2786116018], [31.5409995004, 30.2783525368], [31.5412836726, 30.2780906612], [31.5415643755, 30.2778260092], [31.5418415722, 30.2775586141], [31.5421152278, 30.2772885115], [31.5423853054, 30.2770157365], [31.5426517717, 30.2767403238], [31.54291459, 30.2764623083], [31.543173728, 30.276181728], [31.5434291522, 30.2758986179], [31.5436808287, 30.2756130143], [31.5439287251, 30.2753249552], [31.5441728091, 30.2750344772], [31.5444130491, 30.2747416181], [31.5446494147, 30.274446416], [31.5448818745, 30.2741489089], [31.5451103987, 30.2738491355], [31.5453349578, 30.2735471339], [31.5455555229, 30.2732429443], [31.5457720645, 30.2729366055], [31.5459845556, 30.2726281571], [31.5461929683, 30.2723176394], [31.5463972758, 30.272005092], [31.5465974509, 30.2716905558], [31.5468660823, 30.2712547692], [31.5469974375, 30.2710355306], [31.5471268084, 30.2708154133], [31.5473795656, 30.270372596], [31.5476242918, 30.2699264243], [31.547743624, 30.2697021142], [31.5478609269, 30.2694770068], [31.5480894143, 30.2690244528], [31.5482005853, 30.2687970349], [31.5484167469, 30.2683399832], [31.5486779285, 30.2677586234], [31.5488292793, 30.2674052877], [31.5489757568, 30.2670504223], [31.5491173385, 30.266694076], [31.5492540055, 30.2663363001], [31.549385738, 30.2659771449], [31.5495125182, 30.2656166608], [31.5496343279, 30.2652549], [31.5497511493, 30.2648919118], [31.5498629662, 30.2645277493], [31.5499697625, 30.2641624626], [31.5500715236, 30.2637961031], [31.5501682353, 30.2634287243], [31.5502598842, 30.2630603766], [31.5503464557, 30.2626911126], [31.5504279392, 30.2623209845], [31.5476424584, 30.262050747], [31.547277569, 30.2620257218], [31.5469131881, 30.261995668], [31.5465494099, 30.2619605934], [31.5461863262, 30.2619205072], [31.5458240302, 30.2618754187], [31.5454626137, 30.2618253396], [31.5451021683, 30.2617702823], [31.5447427874, 30.2617102622], [31.5443845608, 30.2616452934], [31.544027582, 30.2615753929], [31.5436719399, 30.2615005786], [31.5433177261, 30.2614208697], [31.5429650314, 30.261336285], [31.5426139446, 30.2612468485], [31.5422645556, 30.2611525811], [31.5416688819, 30.2609833925], [31.5414191619, 30.2609177886], [31.5411679031, 30.2608567244], [31.540915216, 30.2608002264], [31.5406612129, 30.2607483195], [31.5404060042, 30.2607010269], [31.5401497032, 30.2606583696], [31.539892423, 30.2606203661], [31.5396342759, 30.2605870329], [31.5393753761, 30.2605583847], [31.5391158375, 30.2605344345], [31.5388557743, 30.2605151927], [31.5385953006, 30.2605006683], [31.5383345314, 30.2604908662], [31.5380735825, 30.2604857925], [31.5378125671, 30.260485448]]]}}]}