{"type": "FeatureCollection", "features": [{"type": "Feature", "properties": {"Shape_Length": 10.090406292237905, "Shape_Area": 6.182838837178857, "Gas_Facility_Type": "غرفة الغاز", "Easting": "031° 34' 2.78\" E", "Northing": "30° 16' 28.07\" N", "Description": null, "GlobalID": "{B6D0D50D-0F93-4942-BEF7-25AED6C53224}", "القطاع": "القطاع الاول", "الشركةالمنفذة": "غاز مصر", "ID": null}, "geometry": {"type": "MultiPolygon", "coordinates": [[[[31.569135553656746, 30.27462699634271, 168.94199999999546], [31.569118872105467, 30.27461414246314, 168.94199999999546], [31.569098159492015, 30.274632183007757, 168.94199999999546], [31.569112664143, 30.27464600250293, 168.94199999999546], [31.56912327731509, 30.27463719129117, 168.94199999999546], [31.569133970111977, 30.274628311177665, 168.94199999999546], [31.569135553656746, 30.27462699634271, 168.94199999999546]]]]}}, {"type": "Feature", "properties": {"Shape_Length": 7.266613399642675, "Shape_Area": 3.089380425546416, "Gas_Facility_Type": "غرفة الغاز", "Easting": "031° 33' 51.85\" E", "Northing": "30° 16' 36.42\" N", "Description": null, "GlobalID": "{05EC0ABC-6456-46E6-88A2-229DB5EBA8DB}", "القطاع": "القطاع الاول", "الشركةالمنفذة": "غاز مصر", "ID": null}, "geometry": {"type": "MultiPolygon", "coordinates": [[[[31.566093673465947, 30.276947670169456, 169.25], [31.56608329383882, 30.27693910948793, 169.25], [31.56606717803849, 30.27695425219448, 169.25], [31.566077387149104, 30.276962437461446, 169.25], [31.5660775019185, 30.27696233413313, 169.25], [31.566080888011253, 30.27695926429642, 169.25], [31.566090093004927, 30.276950917645973, 169.25], [31.566093673465947, 30.276947670169456, 169.25]]]]}}, {"type": "Feature", "properties": {"Shape_Length": 11.046736047178724, "Shape_Area": 7.219803802407877, "Gas_Facility_Type": "غرفة الغاز", "Easting": "031° 33' 35.96\" E", "Northing": "30° 16' 44.09\" N", "Description": null, "GlobalID": "{58B06044-0EB4-4041-8F53-72555FE9BF0A}", "القطاع": "القطاع الثالث", "الشركةالمنفذة": "غاز مصر", "ID": null}, "geometry": {"type": "MultiPolygon", "coordinates": [[[[31.56168363143436, 30.279091703681445, 174.93399999999383], [31.561685102293197, 30.27908077724876, 174.93399999999383], [31.561686094511916, 30.27907340871971, 174.93399999999383], [31.561651926197705, 30.279067233557228, 174.93399999999383], [31.56164844490135, 30.279087046507726, 174.93399999999383], [31.561665328822578, 30.279089281615526, 174.93399999999383], [31.56168363143436, 30.279091703681445, 174.93399999999383]]]]}}, {"type": "Feature", "properties": {"Shape_Length": 9.745696346989256, "Shape_Area": 5.737648950303826, "Gas_Facility_Type": "غرفة الغاز", "Easting": "031° 33' 10.42\" E", "Northing": "30° 16' 6.78\" N", "Description": null, "GlobalID": "{38536423-E0DB-422A-A854-D1A8DFDFF0A3}", "القطاع": "القطاع الثالث", "الشركةالمنفذة": "غاز مصر", "ID": null}, "geometry": {"type": "MultiPolygon", "coordinates": [[[[31.554575823798483, 30.268731201375022, 170.89500000000407], [31.55458675410902, 30.268706745821902, 170.89500000000407], [31.554567239287138, 30.268700714276164, 170.89500000000407], [31.55456552127041, 30.268704566055877, 170.89500000000407], [31.55455663762826, 30.26872447656965, 170.89500000000407], [31.554556530894693, 30.26872471606285, 170.89500000000407], [31.554566788515753, 30.268728164507507, 170.89500000000407], [31.554575823798483, 30.268731201375022, 170.89500000000407]]]]}}, {"type": "Feature", "properties": {"Shape_Length": 10.813506065629388, "Shape_Area": 6.919552973604736, "Gas_Facility_Type": "غرفة الغاز", "Easting": "031° 33' 19.09\" E", "Northing": "30° 15' 51.72\" N", "Description": null, "GlobalID": "{F76CBF7C-2CFA-498A-9C67-C4F08F7D5064}", "القطاع": "القطاع الثاني", "الشركةالمنفذة": "غاز مصر", "ID": null}, "geometry": {"type": "MultiPolygon", "coordinates": [[[[31.556998645024063, 30.264527895807483, 165.31500000000233], [31.556984316988206, 30.264515346056523, 165.31500000000233], [31.55697824976188, 30.264519850475004, 165.31500000000233], [31.55696003462163, 30.26453337280645, 165.31500000000233], [31.55695871521047, 30.264534352617833, 165.31500000000233], [31.556973689986467, 30.264549551638595, 165.31500000000233], [31.556998645024063, 30.264527895807483, 165.31500000000233]]]]}}]}