{"type": "FeatureCollection", "features": [{"type": "Feature", "properties": {"ID": "48", "قطر_المحبس__mm_": 100, "الشركة_المنفذة": "اولاد حجازي", "Easting": "031° 33' 48.17\" E", "Northing": "30° 16' 15.87\" N", "GlobalID": "{F4B69EE2-77D2-4552-916F-449A44B67319}", "القطاع": "القطاع الاول", "Start1": "21/09/2021", "End1": "20/09/2022", "Installation_Date": null, "Meter_type": null, "Meter_Id": null, "Last_Readin_Date": null, "Current_Reading": null, "Status": null, "Last_Maintenance_date": null, "Owner_Type": null}, "geometry": {"type": "Point", "coordinates": [31.565057999995027, 30.271241183769813, 0.0]}}, {"type": "Feature", "properties": {"ID": "41", "قطر_المحبس__mm_": 100, "الشركة_المنفذة": "اولاد حجازي", "Easting": "031° 33' 38.65\" E", "Northing": "30° 16' 23.99\" N", "GlobalID": "{F450743F-0955-49B4-9081-44B309DB89CF}", "القطاع": "القطاع الاول", "Start1": "21/09/2021", "End1": "20/09/2022", "Installation_Date": null, "Meter_type": null, "Meter_Id": null, "Last_Readin_Date": null, "Current_Reading": null, "Status": null, "Last_Maintenance_date": null, "Owner_Type": null}, "geometry": {"type": "Point", "coordinates": [31.5624143989772, 30.273496120027875, 166.09100000000035]}}, {"type": "Feature", "properties": {"ID": "40", "قطر_المحبس__mm_": 100, "الشركة_المنفذة": "اولاد حجازي", "Easting": "031° 33' 36.97\" E", "Northing": "30° 16' 25.79\" N", "GlobalID": "{825C013F-2A75-44D0-8348-6738DF0F1F79}", "القطاع": "القطاع الاول", "Start1": "21/09/2021", "End1": "20/09/2022", "Installation_Date": null, "Meter_type": null, "Meter_Id": null, "Last_Readin_Date": null, "Current_Reading": null, "Status": null, "Last_Maintenance_date": null, "Owner_Type": null}, "geometry": {"type": "Point", "coordinates": [31.561946716216653, 30.273996586680166, 0.0]}}, {"type": "Feature", "properties": {"ID": "45", "قطر_المحبس__mm_": 100, "الشركة_المنفذة": "اولاد حجازي", "Easting": "031° 33' 43.14\" E", "Northing": "30° 16' 19.85\" N", "GlobalID": "{C4449F86-0441-4895-86E0-D2BA3B6C701F}", "القطاع": "القطاع الاول", "Start1": "21/09/2021", "End1": "20/09/2022", "Installation_Date": null, "Meter_type": null, "Meter_Id": null, "Last_Readin_Date": null, "Current_Reading": null, "Status": null, "Last_Maintenance_date": null, "Owner_Type": null}, "geometry": {"type": "Point", "coordinates": [31.563660727133733, 30.2723459698373, 0.0]}}, {"type": "Feature", "properties": {"ID": "36", "قطر_المحبس__mm_": 100, "الشركة_المنفذة": "اولاد حجازي", "Easting": "031° 33' 54.25\" E", "Northing": "30° 16' 36.24\" N", "GlobalID": "{C8F32323-F1DB-4A91-8613-1E0C658F887A}", "القطاع": "القطاع الاول", "Start1": "21/09/2021", "End1": "20/09/2022", "Installation_Date": null, "Meter_type": null, "Meter_Id": null, "Last_Readin_Date": null, "Current_Reading": null, "Status": null, "Last_Maintenance_date": null, "Owner_Type": null}, "geometry": {"type": "Point", "coordinates": [31.566747616999677, 30.27690063895633, 0.0]}}, {"type": "Feature", "properties": {"ID": "38", "قطر_المحبس__mm_": 100, "الشركة_المنفذة": "اولاد حجازي", "Easting": "031° 33' 58.25\" E", "Northing": "30° 16' 32.91\" N", "GlobalID": "{8F5028C4-4BB7-4719-833B-13DE26476F35}", "القطاع": "القطاع الاول", "Start1": "21/09/2021", "End1": "20/09/2022", "Installation_Date": null, "Meter_type": null, "Meter_Id": null, "Last_Readin_Date": null, "Current_Reading": null, "Status": null, "Last_Maintenance_date": null, "Owner_Type": null}, "geometry": {"type": "Point", "coordinates": [31.56785659929764, 30.275973939041197, 0.0]}}, {"type": "Feature", "properties": {"ID": "39", "قطر_المحبس__mm_": 100, "الشركة_المنفذة": "اولاد حجازي", "Easting": "031° 34' 2.24\" E", "Northing": "30° 16' 29.94\" N", "GlobalID": "{17C1F68A-C0F9-4E6F-A2DB-EF26E1BDA082}", "القطاع": "القطاع الاول", "Start1": "21/09/2021", "End1": "20/09/2022", "Installation_Date": null, "Meter_type": null, "Meter_Id": null, "Last_Readin_Date": null, "Current_Reading": null, "Status": null, "Last_Maintenance_date": null, "Owner_Type": null}, "geometry": {"type": "Point", "coordinates": [31.56896574045779, 30.275148809950704, 0.0]}}, {"type": "Feature", "properties": {"ID": "43", "قطر_المحبس__mm_": 100, "الشركة_المنفذة": "اولاد حجازي", "Easting": "031° 33' 40.39\" E", "Northing": "30° 16' 22.32\" N", "GlobalID": "{836EF34B-76C5-43FC-9279-E3E0DD4A85AB}", "القطاع": "القطاع الاول", "Start1": "21/09/2021", "End1": "20/09/2022", "Installation_Date": null, "Meter_type": null, "Meter_Id": null, "Last_Readin_Date": null, "Current_Reading": null, "Status": null, "Last_Maintenance_date": null, "Owner_Type": null}, "geometry": {"type": "Point", "coordinates": [31.562897225056215, 30.27303379932568, 0.0]}}, {"type": "Feature", "properties": {"ID": "47", "قطر_المحبس__mm_": 100, "الشركة_المنفذة": "اولاد حجازي", "Easting": "031° 33' 46.12\" E", "Northing": "30° 16' 17.47\" N", "GlobalID": "{A3BC57CA-7078-44A7-A02F-009CD91F2C1C}", "القطاع": "القطاع الاول", "Start1": "21/09/2021", "End1": "20/09/2022", "Installation_Date": null, "Meter_type": null, "Meter_Id": null, "Last_Readin_Date": null, "Current_Reading": null, "Status": null, "Last_Maintenance_date": null, "Owner_Type": null}, "geometry": {"type": "Point", "coordinates": [31.564487590232652, 30.27168469720574, 0.0]}}, {"type": "Feature", "properties": {"ID": "44", "قطر_المحبس__mm_": 100, "الشركة_المنفذة": "اولاد حجازي", "Easting": "031° 33' 42.59\" E", "Northing": "30° 16' 20.28\" N", "GlobalID": "{2BE5BFF3-D2CF-44AB-ADDF-B27349D6333A}", "القطاع": "القطاع الاول", "Start1": "21/09/2021", "End1": "20/09/2022", "Installation_Date": null, "Meter_type": null, "Meter_Id": null, "Last_Readin_Date": null, "Current_Reading": null, "Status": null, "Last_Maintenance_date": null, "Owner_Type": null}, "geometry": {"type": "Point", "coordinates": [31.563508252870395, 30.272466333504656, 0.0]}}, {"type": "Feature", "properties": {"ID": "42", "قطر_المحبس__mm_": 100, "الشركة_المنفذة": "اولاد حجازي", "Easting": "031° 33' 39.7\" E", "Northing": "30° 16' 22.98\" N", "GlobalID": "{C7F9BD00-1260-408A-890C-8FDA5A3176A4}", "القطاع": "القطاع الاول", "Start1": "21/09/2021", "End1": "20/09/2022", "Installation_Date": null, "Meter_type": null, "Meter_Id": null, "Last_Readin_Date": null, "Current_Reading": null, "Status": null, "Last_Maintenance_date": null, "Owner_Type": null}, "geometry": {"type": "Point", "coordinates": [31.562705582530096, 30.273217309063416, 0.0]}}, {"type": "Feature", "properties": {"ID": "37", "قطر_المحبس__mm_": 100, "الشركة_المنفذة": "اولاد حجازي", "Easting": "031° 33' 56.05\" E", "Northing": "30° 16' 34.59\" N", "GlobalID": "{EA8AA97E-4C41-4FB7-A9F1-CEE77076AB5D}", "القطاع": "القطاع الاول", "Start1": "21/09/2021", "End1": "20/09/2022", "Installation_Date": null, "Meter_type": null, "Meter_Id": null, "Last_Readin_Date": null, "Current_Reading": null, "Status": null, "Last_Maintenance_date": null, "Owner_Type": null}, "geometry": {"type": "Point", "coordinates": [31.56724765422671, 30.27644010377067, 0.0]}}, {"type": "Feature", "properties": {"ID": "46", "قطر_المحبس__mm_": 100, "الشركة_المنفذة": "اولاد حجازي", "Easting": "031° 33' 45.83\" E", "Northing": "30° 16' 17.7\" N", "GlobalID": "{ECCED91D-BC10-40D5-9545-59252A141E83}", "القطاع": "القطاع الاول", "Start1": "21/09/2021", "End1": "20/09/2022", "Installation_Date": null, "Meter_type": null, "Meter_Id": null, "Last_Readin_Date": null, "Current_Reading": null, "Status": null, "Last_Maintenance_date": null, "Owner_Type": null}, "geometry": {"type": "Point", "coordinates": [31.56440759352946, 30.271748673479784, 0.0]}}, {"type": "Feature", "properties": {"ID": "52", "قطر_المحبس__mm_": 100, "الشركة_المنفذة": "اولاد حجازي", "Easting": "031° 33' 38.6\" E", "Northing": "30° 16' 11.51\" N", "GlobalID": "{707D1636-7D15-48DE-AEB2-D2C242258FAE}", "القطاع": "القطاع الاول", "Start1": "21/09/2021", "End1": "20/09/2022", "Installation_Date": null, "Meter_type": null, "Meter_Id": null, "Last_Readin_Date": null, "Current_Reading": null, "Status": null, "Last_Maintenance_date": null, "Owner_Type": null}, "geometry": {"type": "Point", "coordinates": [31.562398638087643, 30.27003093683338, 0.0]}}, {"type": "Feature", "properties": {"ID": "51", "قطر_المحبس__mm_": 100, "الشركة_المنفذة": "اولاد حجازي", "Easting": "031° 33' 35.55\" E", "Northing": "30° 16' 14.0\" N", "GlobalID": "{38DD6725-1B93-4804-9928-B1AEC28C4578}", "القطاع": "القطاع الاول", "Start1": "21/09/2021", "End1": "20/09/2022", "Installation_Date": null, "Meter_type": null, "Meter_Id": null, "Last_Readin_Date": null, "Current_Reading": null, "Status": null, "Last_Maintenance_date": null, "Owner_Type": null}, "geometry": {"type": "Point", "coordinates": [31.561552605424673, 30.270722469035398, 0.0]}}, {"type": "Feature", "properties": {"ID": "50", "قطر_المحبس__mm_": 100, "الشركة_المنفذة": "اولاد حجازي", "Easting": "031° 33' 32.47\" E", "Northing": "30° 16' 16.97\" N", "GlobalID": "{D0A1A13A-B78A-4A1C-9B49-830AD117555B}", "القطاع": "القطاع الاول", "Start1": "21/09/2021", "End1": "20/09/2022", "Installation_Date": null, "Meter_type": null, "Meter_Id": null, "Last_Readin_Date": null, "Current_Reading": null, "Status": null, "Last_Maintenance_date": null, "Owner_Type": null}, "geometry": {"type": "Point", "coordinates": [31.56069760153202, 30.271547482555242, 0.0]}}, {"type": "Feature", "properties": {"ID": "49", "قطر_المحبس__mm_": 100, "الشركة_المنفذة": "اولاد حجازي", "Easting": "031° 33' 29.78\" E", "Northing": "30° 16' 19.55\" N", "GlobalID": "{B8E2D9B6-87D8-471E-B929-DF29F9319AC3}", "القطاع": "القطاع الاول", "Start1": "21/09/2021", "End1": "20/09/2022", "Installation_Date": null, "Meter_type": null, "Meter_Id": null, "Last_Readin_Date": null, "Current_Reading": null, "Status": null, "Last_Maintenance_date": null, "Owner_Type": null}, "geometry": {"type": "Point", "coordinates": [31.5599493399072, 30.27226449761883, 0.0]}}, {"type": "Feature", "properties": {"ID": "22", "قطر_المحبس__mm_": 200, "الشركة_المنفذة": "اولاد حجازي", "Easting": "031° 33' 52.42\" E", "Northing": "30° 16' 37.88\" N", "GlobalID": "{DCCB6947-4A66-4C72-820B-E35F47A8274E}", "القطاع": "القطاع الاول", "Start1": "21/09/2021", "End1": "20/09/2022", "Installation_Date": null, "Meter_type": null, "Meter_Id": null, "Last_Readin_Date": null, "Current_Reading": null, "Status": null, "Last_Maintenance_date": null, "Owner_Type": null}, "geometry": {"type": "Point", "coordinates": [31.566237654490955, 30.277356185306903, 0.0]}}, {"type": "Feature", "properties": {"ID": "35", "قطر_المحبس__mm_": 200, "الشركة_المنفذة": "اولاد حجازي", "Easting": "031° 33' 52.48\" E", "Northing": "30° 16' 37.88\" N", "GlobalID": "{3FD4295C-473A-4DBA-BD20-1D76FF4D1020}", "القطاع": "القطاع الاول", "Start1": "21/09/2021", "End1": "20/09/2022", "Installation_Date": null, "Meter_type": null, "Meter_Id": null, "Last_Readin_Date": null, "Current_Reading": null, "Status": null, "Last_Maintenance_date": null, "Owner_Type": null}, "geometry": {"type": "Point", "coordinates": [31.566254324553316, 30.277356502103324, 0.0]}}, {"type": "Feature", "properties": {"ID": "21", "قطر_المحبس__mm_": 200, "الشركة_المنفذة": "اولاد حجازي", "Easting": "031° 33' 49.91\" E", "Northing": "30° 16' 35.92\" N", "GlobalID": "{49C50743-8223-4812-A930-6ED244CA82F0}", "القطاع": "القطاع الاول", "Start1": "21/09/2021", "End1": "20/09/2022", "Installation_Date": null, "Meter_type": null, "Meter_Id": null, "Last_Readin_Date": null, "Current_Reading": null, "Status": null, "Last_Maintenance_date": null, "Owner_Type": null}, "geometry": {"type": "Point", "coordinates": [31.565541391103043, 30.276811068998377, 0.0]}}, {"type": "Feature", "properties": {"ID": "19", "قطر_المحبس__mm_": 200, "الشركة_المنفذة": "اولاد حجازي", "Easting": "031° 33' 45.99\" E", "Northing": "30° 16' 32.85\" N", "GlobalID": "{C90F7EA8-66E3-4242-B6CC-14F6645BCA35}", "القطاع": "القطاع الاول", "Start1": "21/09/2021", "End1": "20/09/2022", "Installation_Date": null, "Meter_type": null, "Meter_Id": null, "Last_Readin_Date": null, "Current_Reading": null, "Status": null, "Last_Maintenance_date": null, "Owner_Type": null}, "geometry": {"type": "Point", "coordinates": [31.564452865836152, 30.2759588252302, 0.0]}}, {"type": "Feature", "properties": {"ID": "14", "قطر_المحبس__mm_": 200, "الشركة_المنفذة": "اولاد حجازي", "Easting": "031° 33' 27.25\" E", "Northing": "30° 16' 10.78\" N", "GlobalID": "{50043442-1B7B-4036-BAB5-A2E572FA06F4}", "القطاع": "القطاع الاول", "Start1": "21/09/2021", "End1": "20/09/2022", "Installation_Date": null, "Meter_type": null, "Meter_Id": null, "Last_Readin_Date": null, "Current_Reading": null, "Status": null, "Last_Maintenance_date": null, "Owner_Type": null}, "geometry": {"type": "Point", "coordinates": [31.55921167278969, 30.26989492953726, 0.0]}}, {"type": "Feature", "properties": {"ID": "15", "قطر_المحبس__mm_": 200, "الشركة_المنفذة": "اولاد حجازي", "Easting": "031° 33' 27.01\" E", "Northing": "30° 16' 11.25\" N", "GlobalID": "{2653A28D-8638-4580-99D7-1E7D04632401}", "القطاع": "القطاع الاول", "Start1": "21/09/2021", "End1": "20/09/2022", "Installation_Date": null, "Meter_type": null, "Meter_Id": null, "Last_Readin_Date": null, "Current_Reading": null, "Status": null, "Last_Maintenance_date": null, "Owner_Type": null}, "geometry": {"type": "Point", "coordinates": [31.55917904226411, 30.269956985894808, 0.0]}}, {"type": "Feature", "properties": {"ID": "17", "قطر_المحبس__mm_": 200, "الشركة_المنفذة": "التوحيد", "Easting": "031° 33' 30.96\" E", "Northing": "30° 16' 21.35\" N", "GlobalID": "{15378F28-111E-4ADF-8B41-2046FCDFA3BD}", "القطاع": "القطاع الثالث", "Start1": "15/09/2021", "End1": "15/03/2023", "Installation_Date": null, "Meter_type": null, "Meter_Id": null, "Last_Readin_Date": null, "Current_Reading": null, "Status": null, "Last_Maintenance_date": null, "Owner_Type": null}, "geometry": {"type": "Point", "coordinates": [31.56027700155156, 30.27276252659005, 0.0]}}, {"type": "Feature", "properties": {"ID": "18", "قطر_المحبس__mm_": 200, "الشركة_المنفذة": "التوحيد", "Easting": "031° 33' 37.08\" E", "Northing": "30° 16' 26.1\" N", "GlobalID": "{942937BC-5B2F-4618-96DE-2245D05EAFD7}", "القطاع": "القطاع الثالث", "Start1": "15/09/2021", "End1": "15/03/2023", "Installation_Date": null, "Meter_type": null, "Meter_Id": null, "Last_Readin_Date": null, "Current_Reading": null, "Status": null, "Last_Maintenance_date": null, "Owner_Type": null}, "geometry": {"type": "Point", "coordinates": [31.561977268844746, 30.2740841731877, 0.0]}}, {"type": "Feature", "properties": {"ID": "16", "قطر_المحبس__mm_": 200, "الشركة_المنفذة": "اولاد حجازي", "Easting": "031° 33' 25.62\" E", "Northing": "30° 16' 16.92\" N", "GlobalID": "{93184C13-27C9-4B6F-8026-AA09E28F1CB1}", "القطاع": "القطاع الاول", "Start1": "21/09/2021", "End1": "20/09/2022", "Installation_Date": null, "Meter_type": null, "Meter_Id": null, "Last_Readin_Date": null, "Current_Reading": null, "Status": null, "Last_Maintenance_date": null, "Owner_Type": null}, "geometry": {"type": "Point", "coordinates": [31.558794267655426, 30.271533077485678, 0.0]}}, {"type": "Feature", "properties": {"ID": "89", "قطر_المحبس__mm_": 200, "الشركة_المنفذة": "اولاد حجازي", "Easting": "031° 33' 46.01\" E", "Northing": "30° 16' 11.29\" N", "GlobalID": "{8AD2799C-9A02-4892-A29D-121E9B5753A8}", "القطاع": "القطاع الاول", "Start1": "21/09/2021", "End1": "20/09/2022", "Installation_Date": null, "Meter_type": null, "Meter_Id": null, "Last_Readin_Date": null, "Current_Reading": null, "Status": null, "Last_Maintenance_date": null, "Owner_Type": null}, "geometry": {"type": "Point", "coordinates": [31.564457497380197, 30.26996981216174, 0.0]}}, {"type": "Feature", "properties": {"ID": "90", "قطر_المحبس__mm_": 200, "الشركة_المنفذة": "اولاد حجازي", "Easting": "031° 33' 45.43\" E", "Northing": "30° 16' 10.9\" N", "GlobalID": "{9BD5DA05-8480-421D-98E6-3DA82DCA2A76}", "القطاع": "القطاع الاول", "Start1": "21/09/2021", "End1": "20/09/2022", "Installation_Date": null, "Meter_type": null, "Meter_Id": null, "Last_Readin_Date": null, "Current_Reading": null, "Status": null, "Last_Maintenance_date": null, "Owner_Type": null}, "geometry": {"type": "Point", "coordinates": [31.56429764587696, 30.269861933634115, 0.0]}}, {"type": "Feature", "properties": {"ID": "88", "قطر_المحبس__mm_": 200, "الشركة_المنفذة": "اولاد حجازي", "Easting": "031° 33' 50.2\" E", "Northing": "30° 16' 14.26\" N", "GlobalID": "{04999A72-82BE-4336-A728-DF975F16E9EE}", "القطاع": "القطاع الاول", "Start1": "21/09/2021", "End1": "20/09/2022", "Installation_Date": null, "Meter_type": null, "Meter_Id": null, "Last_Readin_Date": null, "Current_Reading": null, "Status": null, "Last_Maintenance_date": null, "Owner_Type": null}, "geometry": {"type": "Point", "coordinates": [31.565620290598545, 30.270795173547928, 0.0]}}, {"type": "Feature", "properties": {"ID": "87", "قطر_المحبس__mm_": 200, "الشركة_المنفذة": "اولاد حجازي", "Easting": "031° 33' 51.85\" E", "Northing": "30° 16' 15.52\" N", "GlobalID": "{FD018E23-537F-4E78-9F28-57247961779B}", "القطاع": "القطاع الاول", "Start1": "21/09/2021", "End1": "20/09/2022", "Installation_Date": null, "Meter_type": null, "Meter_Id": null, "Last_Readin_Date": null, "Current_Reading": null, "Status": null, "Last_Maintenance_date": null, "Owner_Type": null}, "geometry": {"type": "Point", "coordinates": [31.5660804375851, 30.271144489143428, 0.0]}}, {"type": "Feature", "properties": {"ID": "84", "قطر_المحبس__mm_": 200, "الشركة_المنفذة": "اولاد حجازي", "Easting": "031° 33' 58.96\" E", "Northing": "30° 16' 23.0\" N", "GlobalID": "{0F3420CF-7AE9-4FB4-9AE2-E4C174EB4EC8}", "القطاع": "القطاع الاول", "Start1": "21/09/2021", "End1": "20/09/2022", "Installation_Date": null, "Meter_type": null, "Meter_Id": null, "Last_Readin_Date": null, "Current_Reading": null, "Status": null, "Last_Maintenance_date": null, "Owner_Type": null}, "geometry": {"type": "Point", "coordinates": [31.568055761667527, 30.273223111443873, 0.0]}}, {"type": "Feature", "properties": {"ID": "85", "قطر_المحبس__mm_": 200, "الشركة_المنفذة": "اولاد حجازي", "Easting": "031° 34' 1.77\" E", "Northing": "30° 16' 25.95\" N", "GlobalID": "{CEC53755-815A-4978-AE3E-19AF496815A4}", "القطاع": "القطاع الاول", "Start1": "21/09/2021", "End1": "20/09/2022", "Installation_Date": null, "Meter_type": null, "Meter_Id": null, "Last_Readin_Date": null, "Current_Reading": null, "Status": null, "Last_Maintenance_date": null, "Owner_Type": null}, "geometry": {"type": "Point", "coordinates": [31.568836760196994, 30.274040177681243, 0.0]}}, {"type": "Feature", "properties": {"ID": "53", "قطر_المحبس__mm_": 200, "الشركة_المنفذة": "اولاد حجازي", "Easting": "031° 34' 4.15\" E", "Northing": "30° 16' 28.65\" N", "GlobalID": "{B08B192B-7B34-44A0-8267-62D6DD865D68}", "القطاع": "القطاع الاول", "Start1": "21/09/2021", "End1": "20/09/2022", "Installation_Date": null, "Meter_type": null, "Meter_Id": null, "Last_Readin_Date": null, "Current_Reading": null, "Status": null, "Last_Maintenance_date": null, "Owner_Type": null}, "geometry": {"type": "Point", "coordinates": [31.569496288613692, 30.27479156978589, 163.8000000000029]}}, {"type": "Feature", "properties": {"ID": "86", "قطر_المحبس__mm_": 200, "الشركة_المنفذة": "عوض خليفة", "Easting": "031° 34' 4.49\" E", "Northing": "30° 16' 28.46\" N", "GlobalID": "{48EF3C83-E34C-4167-9767-0DFA356FD8B1}", "القطاع": "القطاع الثاني", "Start1": "18/09/2021", "End1": "28/10/2023", "Installation_Date": null, "Meter_type": null, "Meter_Id": null, "Last_Readin_Date": null, "Current_Reading": null, "Status": null, "Last_Maintenance_date": null, "Owner_Type": null}, "geometry": {"type": "Point", "coordinates": [31.569589760142645, 30.27473940420994, 169.50999999999476]}}, {"type": "Feature", "properties": {"ID": "91", "قطر_المحبس__mm_": 100, "الشركة_المنفذة": "اولاد حجازي", "Easting": "031° 33' 39.56\" E", "Northing": "30° 16' 7.83\" N", "GlobalID": "{EBA8F25C-D8D0-4C19-8F93-B6FF8573E89D}", "القطاع": "القطاع الاول", "Start1": "21/09/2021", "End1": "20/09/2022", "Installation_Date": null, "Meter_type": null, "Meter_Id": null, "Last_Readin_Date": null, "Current_Reading": null, "Status": null, "Last_Maintenance_date": null, "Owner_Type": null}, "geometry": {"type": "Point", "coordinates": [31.562665287142487, 30.269008849564845, 0.0]}}, {"type": "Feature", "properties": {"ID": "92", "قطر_المحبس__mm_": 200, "الشركة_المنفذة": "اولاد حجازي", "Easting": "031° 33' 28.34\" E", "Northing": "30° 16' 8.62\" N", "GlobalID": "{0E2B8CC0-37E1-4C60-93E5-0E8876E964CB}", "القطاع": "القطاع الاول", "Start1": "21/09/2021", "End1": "20/09/2022", "Installation_Date": null, "Meter_type": null, "Meter_Id": null, "Last_Readin_Date": null, "Current_Reading": null, "Status": null, "Last_Maintenance_date": null, "Owner_Type": null}, "geometry": {"type": "Point", "coordinates": [31.559548763485786, 30.26922866798946, 169.88999999999942]}}, {"type": "Feature", "properties": {"ID": "13", "قطر_المحبس__mm_": 200, "الشركة_المنفذة": "التوحيد", "Easting": "031° 33' 24.16\" E", "Northing": "30° 16' 10.05\" N", "GlobalID": "{8119A27B-5990-4721-B982-9F8FCA696B3C}", "القطاع": "القطاع الثالث", "Start1": "15/09/2021", "End1": "15/03/2023", "Installation_Date": null, "Meter_type": null, "Meter_Id": null, "Last_Readin_Date": null, "Current_Reading": null, "Status": null, "Last_Maintenance_date": null, "Owner_Type": null}, "geometry": {"type": "Point", "coordinates": [31.55838860500816, 30.269624840874414, 170.50599999999395]}}, {"type": "Feature", "properties": {"ID": "91", "قطر_المحبس__mm_": 100, "الشركة_المنفذة": "اولاد حجازي", "Easting": "031° 33' 41.26\" E", "Northing": "30° 16' 8.69\" N", "GlobalID": "{8826C2D0-7889-42DA-BA7D-7C0547D0516F}", "القطاع": "القطاع الاول", "Start1": "21/09/2021", "End1": "20/09/2022", "Installation_Date": null, "Meter_type": null, "Meter_Id": null, "Last_Readin_Date": null, "Current_Reading": null, "Status": null, "Last_Maintenance_date": null, "Owner_Type": null}, "geometry": {"type": "Point", "coordinates": [31.56313895717808, 30.269247450439746, 0.0]}}, {"type": "Feature", "properties": {"ID": "25", "قطر_المحبس__mm_": 110, "الشركة_المنفذة": "التوحيد", "Easting": "031° 33' 27.61\" E", "Northing": "30° 16' 29.66\" N", "GlobalID": "{C0D1A606-FA62-4B87-8369-31A9AD042763}", "القطاع": "القطاع الثالث", "Start1": "15/09/2021", "End1": "15/03/2023", "Installation_Date": null, "Meter_type": null, "Meter_Id": null, "Last_Readin_Date": null, "Current_Reading": null, "Status": null, "Last_Maintenance_date": null, "Owner_Type": null}, "geometry": {"type": "Point", "coordinates": [31.55934715686137, 30.275072831587654, 0.0]}}, {"type": "Feature", "properties": {"ID": "1", "قطر_المحبس__mm_": 110, "الشركة_المنفذة": "التوحيد", "Easting": "031° 33' 41.57\" E", "Northing": "30° 16' 44.96\" N", "GlobalID": "{85C0141E-4B30-4147-9336-92C7C47C0C7A}", "القطاع": "القطاع الثالث", "Start1": "15/09/2021", "End1": "15/03/2023", "Installation_Date": null, "Meter_type": null, "Meter_Id": null, "Last_Readin_Date": null, "Current_Reading": null, "Status": null, "Last_Maintenance_date": null, "Owner_Type": null}, "geometry": {"type": "Point", "coordinates": [31.56322436931897, 30.27932096587802, 0.0]}}, {"type": "Feature", "properties": {"ID": "34", "قطر_المحبس__mm_": 110, "الشركة_المنفذة": "التوحيد", "Easting": "031° 33' 22.6\" E", "Northing": "30° 16' 30.55\" N", "GlobalID": "{27438CD5-3C59-4C49-8B6C-1A962F0B5E32}", "القطاع": "القطاع الثالث", "Start1": "15/09/2021", "End1": "15/03/2023", "Installation_Date": null, "Meter_type": null, "Meter_Id": null, "Last_Readin_Date": null, "Current_Reading": null, "Status": null, "Last_Maintenance_date": null, "Owner_Type": null}, "geometry": {"type": "Point", "coordinates": [31.557955592236095, 30.275320328734644, 0.0]}}, {"type": "Feature", "properties": {"ID": "11", "قطر_المحبس__mm_": 110, "الشركة_المنفذة": "التوحيد", "Easting": "031° 33' 15.62\" E", "Northing": "30° 16' 7.07\" N", "GlobalID": "{E11B363D-D88C-46B0-9962-56CF77319F86}", "القطاع": "القطاع الثالث", "Start1": "15/09/2021", "End1": "15/03/2023", "Installation_Date": null, "Meter_type": null, "Meter_Id": null, "Last_Readin_Date": null, "Current_Reading": null, "Status": null, "Last_Maintenance_date": null, "Owner_Type": null}, "geometry": {"type": "Point", "coordinates": [31.55601476242223, 30.26879770034241, 0.0]}}, {"type": "Feature", "properties": {"ID": "12", "قطر_المحبس__mm_": 110, "الشركة_المنفذة": "التوحيد", "Easting": "031° 33' 15.66\" E", "Northing": "30° 16' 7.09\" N", "GlobalID": "{4B1ADC5B-5A8C-43F3-BE80-C52CC4C08024}", "القطاع": "القطاع الثالث", "Start1": "15/09/2021", "End1": "15/03/2023", "Installation_Date": null, "Meter_type": null, "Meter_Id": null, "Last_Readin_Date": null, "Current_Reading": null, "Status": null, "Last_Maintenance_date": null, "Owner_Type": null}, "geometry": {"type": "Point", "coordinates": [31.556026260052196, 30.268801734254794, 0.0]}}, {"type": "Feature", "properties": {"ID": "30", "قطر_المحبس__mm_": 110, "الشركة_المنفذة": "التوحيد", "Easting": "031° 33' 19.11\" E", "Northing": "30° 16' 22.97\" N", "GlobalID": "{F3CDC25E-20C7-41E2-838A-AB63CDF953B0}", "القطاع": "القطاع الثالث", "Start1": "15/09/2021", "End1": "15/03/2023", "Installation_Date": null, "Meter_type": null, "Meter_Id": null, "Last_Readin_Date": null, "Current_Reading": null, "Status": null, "Last_Maintenance_date": null, "Owner_Type": null}, "geometry": {"type": "Point", "coordinates": [31.556984983542915, 30.27321485980012, 0.0]}}, {"type": "Feature", "properties": {"ID": "29", "قطر_المحبس__mm_": 110, "الشركة_المنفذة": "التوحيد", "Easting": "031° 33' 19.03\" E", "Northing": "30° 16' 22.91\" N", "GlobalID": "{67F08366-39A4-47D8-A18F-3792A28EDE17}", "القطاع": "القطاع الثالث", "Start1": "15/09/2021", "End1": "15/03/2023", "Installation_Date": null, "Meter_type": null, "Meter_Id": null, "Last_Readin_Date": null, "Current_Reading": null, "Status": null, "Last_Maintenance_date": null, "Owner_Type": null}, "geometry": {"type": "Point", "coordinates": [31.556962903398805, 30.273197319513482, 0.0]}}, {"type": "Feature", "properties": {"ID": "33", "قطر_المحبس__mm_": 110, "الشركة_المنفذة": "التوحيد", "Easting": "031° 33' 17.08\" E", "Northing": "30° 16' 14.8\" N", "GlobalID": "{4FFF7F72-5AF0-43B6-90C2-CAF5741E6A40}", "القطاع": "القطاع الثالث", "Start1": "15/09/2021", "End1": "15/03/2023", "Installation_Date": null, "Meter_type": null, "Meter_Id": null, "Last_Readin_Date": null, "Current_Reading": null, "Status": null, "Last_Maintenance_date": null, "Owner_Type": null}, "geometry": {"type": "Point", "coordinates": [31.55642202334525, 30.270942892667566, 0.0]}}, {"type": "Feature", "properties": {"ID": "2", "قطر_المحبس__mm_": 110, "الشركة_المنفذة": "التوحيد", "Easting": "031° 33' 31.89\" E", "Northing": "30° 16' 44.06\" N", "GlobalID": "{3023D385-D60F-468A-9434-ABAEF0B16A01}", "القطاع": "القطاع الثالث", "Start1": "15/09/2021", "End1": "15/03/2023", "Installation_Date": null, "Meter_type": null, "Meter_Id": null, "Last_Readin_Date": null, "Current_Reading": null, "Status": null, "Last_Maintenance_date": null, "Owner_Type": null}, "geometry": {"type": "Point", "coordinates": [31.560535935242388, 30.27907066506495, 0.0]}}, {"type": "Feature", "properties": {"ID": "3", "قطر_المحبس__mm_": 110, "الشركة_المنفذة": "التوحيد", "Easting": "031° 33' 24.95\" E", "Northing": "30° 16' 39.05\" N", "GlobalID": "{9C68B0E5-351F-4705-B068-9517DBD4BACF}", "القطاع": "القطاع الثالث", "Start1": "15/09/2021", "End1": "15/03/2023", "Installation_Date": null, "Meter_type": null, "Meter_Id": null, "Last_Readin_Date": null, "Current_Reading": null, "Status": null, "Last_Maintenance_date": null, "Owner_Type": null}, "geometry": {"type": "Point", "coordinates": [31.558607310227345, 30.277680314870057, 0.0]}}, {"type": "Feature", "properties": {"ID": "4", "قطر_المحبس__mm_": 110, "الشركة_المنفذة": "التوحيد", "Easting": "031° 33' 12.12\" E", "Northing": "30° 16' 28.99\" N", "GlobalID": "{70BE498B-C5C8-4C26-B4D4-5D19E819EC5F}", "القطاع": "القطاع الثالث", "Start1": "15/09/2021", "End1": "15/03/2023", "Installation_Date": null, "Meter_type": null, "Meter_Id": null, "Last_Readin_Date": null, "Current_Reading": null, "Status": null, "Last_Maintenance_date": null, "Owner_Type": null}, "geometry": {"type": "Point", "coordinates": [31.55504241686579, 30.274886486729137, 0.0]}}, {"type": "Feature", "properties": {"ID": "23", "قطر_المحبس__mm_": 110, "الشركة_المنفذة": "التوحيد", "Easting": "031° 33' 34.29\" E", "Northing": "30° 16' 34.97\" N", "GlobalID": "{7DC58EC9-7964-412B-8152-53A282CB37F8}", "القطاع": "القطاع الثالث", "Start1": "15/09/2021", "End1": "15/03/2023", "Installation_Date": null, "Meter_type": null, "Meter_Id": null, "Last_Readin_Date": null, "Current_Reading": null, "Status": null, "Last_Maintenance_date": null, "Owner_Type": null}, "geometry": {"type": "Point", "coordinates": [31.561201230582224, 30.276546549186364, 0.0]}}, {"type": "Feature", "properties": {"ID": "20", "قطر_المحبس__mm_": 110, "الشركة_المنفذة": "التوحيد", "Easting": "031° 33' 46.04\" E", "Northing": "30° 16' 33.17\" N", "GlobalID": "{6E032C4B-E386-43F6-9485-48AEEB96CA1F}", "القطاع": "القطاع الثالث", "Start1": "15/09/2021", "End1": "15/03/2023", "Installation_Date": null, "Meter_type": null, "Meter_Id": null, "Last_Readin_Date": null, "Current_Reading": null, "Status": null, "Last_Maintenance_date": null, "Owner_Type": null}, "geometry": {"type": "Point", "coordinates": [31.564466931672985, 30.276045800126337, 0.0]}}, {"type": "Feature", "properties": {"ID": "10", "قطر_المحبس__mm_": 110, "الشركة_المنفذة": "التوحيد", "Easting": "031° 33' 10.77\" E", "Northing": "30° 16' 5.38\" N", "GlobalID": "{2B32E867-81AB-4DB8-A37E-F00498DBD6BA}", "القطاع": "القطاع الثالث", "Start1": "15/09/2021", "End1": "15/03/2023", "Installation_Date": null, "Meter_type": null, "Meter_Id": null, "Last_Readin_Date": null, "Current_Reading": null, "Status": null, "Last_Maintenance_date": null, "Owner_Type": null}, "geometry": {"type": "Point", "coordinates": [31.55459526444849, 30.268302494465257, 0.0]}}, {"type": "Feature", "properties": {"ID": "27", "قطر_المحبس__mm_": 110, "الشركة_المنفذة": "التوحيد", "Easting": "031° 33' 25.17\" E", "Northing": "30° 16' 27.82\" N", "GlobalID": "{E24D774F-C4C7-4800-8425-3A85011D5BD0}", "القطاع": "القطاع الثالث", "Start1": "15/09/2021", "End1": "15/03/2023", "Installation_Date": null, "Meter_type": null, "Meter_Id": null, "Last_Readin_Date": null, "Current_Reading": null, "Status": null, "Last_Maintenance_date": null, "Owner_Type": null}, "geometry": {"type": "Point", "coordinates": [31.55866787365739, 30.274561647889445, 0.0]}}, {"type": "Feature", "properties": {"ID": "6", "قطر_المحبس__mm_": 110, "الشركة_المنفذة": "التوحيد", "Easting": "031° 33' 6.75\" E", "Northing": "30° 16' 23.72\" N", "GlobalID": "{2691266D-9B71-4A17-8E21-90A17FB2FBE4}", "القطاع": "القطاع الثالث", "Start1": "15/09/2021", "End1": "15/03/2023", "Installation_Date": null, "Meter_type": null, "Meter_Id": null, "Last_Readin_Date": null, "Current_Reading": null, "Status": null, "Last_Maintenance_date": null, "Owner_Type": null}, "geometry": {"type": "Point", "coordinates": [31.553553090122843, 30.273420941284183, 0.0]}}, {"type": "Feature", "properties": {"ID": "26", "قطر_المحبس__mm_": 110, "الشركة_المنفذة": "التوحيد", "Easting": "031° 33' 25.33\" E", "Northing": "30° 16' 27.94\" N", "GlobalID": "{2041932E-E532-4857-AD71-4FE066C4D396}", "القطاع": "القطاع الثالث", "Start1": "15/09/2021", "End1": "15/03/2023", "Installation_Date": null, "Meter_type": null, "Meter_Id": null, "Last_Readin_Date": null, "Current_Reading": null, "Status": null, "Last_Maintenance_date": null, "Owner_Type": null}, "geometry": {"type": "Point", "coordinates": [31.558712807465348, 30.274595462611654, 0.0]}}, {"type": "Feature", "properties": {"ID": "31", "قطر_المحبس__mm_": 110, "الشركة_المنفذة": "التوحيد", "Easting": "031° 33' 16.32\" E", "Northing": "30° 16' 20.58\" N", "GlobalID": "{A843D9C1-42E6-4830-AA35-1C425BCE4D9F}", "القطاع": "القطاع الثالث", "Start1": "15/09/2021", "End1": "15/03/2023", "Installation_Date": null, "Meter_type": null, "Meter_Id": null, "Last_Readin_Date": null, "Current_Reading": null, "Status": null, "Last_Maintenance_date": null, "Owner_Type": null}, "geometry": {"type": "Point", "coordinates": [31.556210393616315, 30.27255110899103, 0.0]}}, {"type": "Feature", "properties": {"ID": "8", "قطر_المحبس__mm_": 160, "الشركة_المنفذة": "التوحيد", "Easting": "031° 33' 8.72\" E", "Northing": "30° 16' 9.26\" N", "GlobalID": "{69C534C2-D0B7-4CAC-9844-7F51C78F3C4E}", "القطاع": "القطاع الثالث", "Start1": "15/09/2021", "End1": "15/03/2023", "Installation_Date": null, "Meter_type": null, "Meter_Id": null, "Last_Readin_Date": null, "Current_Reading": null, "Status": null, "Last_Maintenance_date": null, "Owner_Type": null}, "geometry": {"type": "Point", "coordinates": [31.55409812104329, 30.269404459065292, 0.0]}}, {"type": "Feature", "properties": {"ID": "1", "قطر_المحبس__mm_": 160, "الشركة_المنفذة": "التوحيد", "Easting": "031° 33' 47.44\" E", "Northing": "30° 16' 44.17\" N", "GlobalID": "{088C8068-3D16-44E1-AAAF-48538F4EF7DB}", "القطاع": "القطاع الثالث", "Start1": "15/09/2021", "End1": "15/03/2023", "Installation_Date": null, "Meter_type": null, "Meter_Id": null, "Last_Readin_Date": null, "Current_Reading": null, "Status": null, "Last_Maintenance_date": null, "Owner_Type": null}, "geometry": {"type": "Point", "coordinates": [31.564817614933922, 30.279145435319393, 0.0]}}, {"type": "Feature", "properties": {"ID": "5", "قطر_المحبس__mm_": 110, "الشركة_المنفذة": "التوحيد", "Easting": "031° 33' 8.88\" E", "Northing": "30° 16' 26.44\" N", "GlobalID": "{2770C247-870E-4ACA-B1C5-3217D2C362E9}", "القطاع": "القطاع الثالث", "Start1": "15/09/2021", "End1": "15/03/2023", "Installation_Date": null, "Meter_type": null, "Meter_Id": null, "Last_Readin_Date": null, "Current_Reading": null, "Status": null, "Last_Maintenance_date": null, "Owner_Type": null}, "geometry": {"type": "Point", "coordinates": [31.554143568900965, 30.27417796460588, 167.56600000000617]}}, {"type": "Feature", "properties": {"ID": "7", "قطر_المحبس__mm_": 110, "الشركة_المنفذة": "التوحيد", "Easting": "031° 33' 7.37\" E", "Northing": "30° 16' 12.04\" N", "GlobalID": "{38CB1170-A4A9-4389-9B25-E49377628F88}", "القطاع": "القطاع الثالث", "Start1": "15/09/2021", "End1": "15/03/2023", "Installation_Date": null, "Meter_type": null, "Meter_Id": null, "Last_Readin_Date": null, "Current_Reading": null, "Status": null, "Last_Maintenance_date": null, "Owner_Type": null}, "geometry": {"type": "Point", "coordinates": [31.55372377593525, 30.270177824544774, 165.85060000000522]}}, {"type": "Feature", "properties": {"ID": "9", "قطر_المحبس__mm_": 160, "الشركة_المنفذة": "التوحيد", "Easting": "031° 33' 10.42\" E", "Northing": "30° 16' 5.48\" N", "GlobalID": "{1F9D9598-FBC0-4CCD-810C-FD9EAFFC4F73}", "القطاع": "القطاع الثالث", "Start1": "15/09/2021", "End1": "15/03/2023", "Installation_Date": null, "Meter_type": null, "Meter_Id": null, "Last_Readin_Date": null, "Current_Reading": null, "Status": null, "Last_Maintenance_date": null, "Owner_Type": null}, "geometry": {"type": "Point", "coordinates": [31.55457244375169, 30.2683544505298, 169.44349999999395]}}, {"type": "Feature", "properties": {"ID": "32", "قطر_المحبس__mm_": 110, "الشركة_المنفذة": "التوحيد", "Easting": "031° 33' 15.57\" E", "Northing": "30° 16' 18.02\" N", "GlobalID": "{0BC1C0BE-7067-4129-82EE-1C52037E9189}", "القطاع": "القطاع الثالث", "Start1": "15/09/2021", "End1": "15/03/2023", "Installation_Date": null, "Meter_type": null, "Meter_Id": null, "Last_Readin_Date": null, "Current_Reading": null, "Status": null, "Last_Maintenance_date": null, "Owner_Type": null}, "geometry": {"type": "Point", "coordinates": [31.55600171356045, 30.27183918860449, 169.24800000000687]}}, {"type": "Feature", "properties": {"ID": "55", "قطر_المحبس__mm_": 110, "الشركة_المنفذة": "عوض خليفة", "Easting": "031° 34' 11.98\" E", "Northing": "30° 16' 19.1\" N", "GlobalID": "{814E08F6-AEC1-456D-B128-715E318CF498}", "القطاع": "القطاع الثاني", "Start1": "18/09/2021", "End1": "28/10/2023", "Installation_Date": null, "Meter_type": null, "Meter_Id": null, "Last_Readin_Date": null, "Current_Reading": null, "Status": null, "Last_Maintenance_date": null, "Owner_Type": null}, "geometry": {"type": "Point", "coordinates": [31.57167185629138, 30.27213964408746, 0.0]}}, {"type": "Feature", "properties": {"ID": "62", "قطر_المحبس__mm_": 160, "الشركة_المنفذة": "عوض خليفة", "Easting": "031° 33' 22.16\" E", "Northing": "30° 15' 49.64\" N", "GlobalID": "{187D8D5A-77B1-4FE0-95EB-64409E78FBDE}", "القطاع": "القطاع الثاني", "Start1": "18/09/2021", "End1": "28/10/2023", "Installation_Date": null, "Meter_type": null, "Meter_Id": null, "Last_Readin_Date": null, "Current_Reading": null, "Status": null, "Last_Maintenance_date": null, "Owner_Type": null}, "geometry": {"type": "Point", "coordinates": [31.557833518234773, 30.26395383722269, 0.0]}}, {"type": "Feature", "properties": {"ID": "71", "قطر_المحبس__mm_": 110, "الشركة_المنفذة": "عوض خليفة", "Easting": "031° 33' 34.2\" E", "Northing": "30° 15' 59.39\" N", "GlobalID": "{19FFFA7B-9DE3-432A-B412-994E5459D975}", "القطاع": "القطاع الثاني", "Start1": "18/09/2021", "End1": "28/10/2023", "Installation_Date": null, "Meter_type": null, "Meter_Id": null, "Last_Readin_Date": null, "Current_Reading": null, "Status": null, "Last_Maintenance_date": null, "Owner_Type": null}, "geometry": {"type": "Point", "coordinates": [31.561175861641097, 30.266662728461466, 0.0]}}, {"type": "Feature", "properties": {"ID": "74", "قطر_المحبس__mm_": 110, "الشركة_المنفذة": "عوض خليفة", "Easting": "031° 33' 42.77\" E", "Northing": "30° 16' 2.87\" N", "GlobalID": "{64EDD28E-74F5-4EB0-9944-BCF3BA276B5C}", "القطاع": "القطاع الثاني", "Start1": "18/09/2021", "End1": "28/10/2023", "Installation_Date": null, "Meter_type": null, "Meter_Id": null, "Last_Readin_Date": null, "Current_Reading": null, "Status": null, "Last_Maintenance_date": null, "Owner_Type": null}, "geometry": {"type": "Point", "coordinates": [31.563558522312224, 30.267630767975398, 0.0]}}, {"type": "Feature", "properties": {"ID": "75", "قطر_المحبس__mm_": 110, "الشركة_المنفذة": "عوض خليفة", "Easting": "031° 33' 45.07\" E", "Northing": "30° 16' 3.53\" N", "GlobalID": "{0A7D1633-2BBA-4805-8143-0DFBC1EFE13C}", "القطاع": "القطاع الثاني", "Start1": "18/09/2021", "End1": "28/10/2023", "Installation_Date": null, "Meter_type": null, "Meter_Id": null, "Last_Readin_Date": null, "Current_Reading": null, "Status": null, "Last_Maintenance_date": null, "Owner_Type": null}, "geometry": {"type": "Point", "coordinates": [31.564196115619147, 30.267814518154278, 0.0]}}, {"type": "Feature", "properties": {"ID": "94", "قطر_المحبس__mm_": 110, "الشركة_المنفذة": "عوض خليفة", "Easting": "031° 33' 47.67\" E", "Northing": "30° 15' 59.93\" N", "GlobalID": "{FBBD1970-E459-4D53-9496-EDF55449FAF7}", "القطاع": "القطاع الثاني", "Start1": "18/09/2021", "End1": "28/10/2023", "Installation_Date": null, "Meter_type": null, "Meter_Id": null, "Last_Readin_Date": null, "Current_Reading": null, "Status": null, "Last_Maintenance_date": null, "Owner_Type": null}, "geometry": {"type": "Point", "coordinates": [31.564917947530226, 30.26681461778281, 0.0]}}, {"type": "Feature", "properties": {"ID": "24", "قطر_المحبس__mm_": 110, "الشركة_المنفذة": "التوحيد", "Easting": "031° 33' 28.61\" E", "Northing": "30° 16' 30.46\" N", "GlobalID": "{BED065F8-C5E4-40D9-AA47-47445DE609AE}", "القطاع": "القطاع الثالث", "Start1": "15/09/2021", "End1": "15/03/2023", "Installation_Date": null, "Meter_type": null, "Meter_Id": null, "Last_Readin_Date": null, "Current_Reading": null, "Status": null, "Last_Maintenance_date": null, "Owner_Type": null}, "geometry": {"type": "Point", "coordinates": [31.559624674592765, 30.2752938839621, 172.94599999999627]}}, {"type": "Feature", "properties": {"ID": "28", "قطر_المحبس__mm_": 110, "الشركة_المنفذة": "التوحيد", "Easting": "031° 33' 21.78\" E", "Northing": "30° 16' 25.1\" N", "GlobalID": "{A0208259-A7DD-4A11-A1E6-41173BBCD3A2}", "القطاع": "القطاع الثالث", "Start1": "15/09/2021", "End1": "15/03/2023", "Installation_Date": null, "Meter_type": null, "Meter_Id": null, "Last_Readin_Date": null, "Current_Reading": null, "Status": null, "Last_Maintenance_date": null, "Owner_Type": null}, "geometry": {"type": "Point", "coordinates": [31.557726384096004, 30.273804008114286, 171.72400000000198]}}, {"type": "Feature", "properties": {"ID": "56", "قطر_المحبس__mm_": 110, "الشركة_المنفذة": "عوض خليفة", "Easting": "031° 34' 12.1\" E", "Northing": "30° 16' 17.94\" N", "GlobalID": "{D5F7ADDE-76D5-4890-A9AF-5166DB241062}", "القطاع": "القطاع الثاني", "Start1": "18/09/2021", "End1": "28/10/2023", "Installation_Date": null, "Meter_type": null, "Meter_Id": null, "Last_Readin_Date": null, "Current_Reading": null, "Status": null, "Last_Maintenance_date": null, "Owner_Type": null}, "geometry": {"type": "Point", "coordinates": [31.57170564423812, 30.27181554932066, 175.52000000000407]}}, {"type": "Feature", "properties": {"ID": "60", "قطر_المحبس__mm_": 160, "الشركة_المنفذة": "عوض خليفة", "Easting": "031° 33' 46.16\" E", "Northing": "30° 15' 53.33\" N", "GlobalID": "{84005D20-5093-44F1-8745-BAEA70B60593}", "القطاع": "القطاع الثاني", "Start1": "18/09/2021", "End1": "28/10/2023", "Installation_Date": null, "Meter_type": null, "Meter_Id": null, "Last_Readin_Date": null, "Current_Reading": null, "Status": null, "Last_Maintenance_date": null, "Owner_Type": null}, "geometry": {"type": "Point", "coordinates": [31.564500328797354, 30.264980830760848, 160.3000000000029]}}, {"type": "Feature", "properties": {"ID": "61", "قطر_المحبس__mm_": 160, "الشركة_المنفذة": "عوض خليفة", "Easting": "031° 33' 38.26\" E", "Northing": "30° 15' 50.31\" N", "GlobalID": "{6D724493-0F30-43FA-ADCD-E80B6CF4C47F}", "القطاع": "القطاع الثاني", "Start1": "18/09/2021", "End1": "28/10/2023", "Installation_Date": null, "Meter_type": null, "Meter_Id": null, "Last_Readin_Date": null, "Current_Reading": null, "Status": null, "Last_Maintenance_date": null, "Owner_Type": null}, "geometry": {"type": "Point", "coordinates": [31.56230528693544, 30.26414169982842, 167.0500000000029]}}, {"type": "Feature", "properties": {"ID": "63", "قطر_المحبس__mm_": 160, "الشركة_المنفذة": "عوض خليفة", "Easting": "031° 33' 19.78\" E", "Northing": "30° 15' 50.78\" N", "GlobalID": "{7060EEF0-3A08-4523-B036-D1664C417497}", "القطاع": "القطاع الثاني", "Start1": "18/09/2021", "End1": "28/10/2023", "Installation_Date": null, "Meter_type": null, "Meter_Id": null, "Last_Readin_Date": null, "Current_Reading": null, "Status": null, "Last_Maintenance_date": null, "Owner_Type": null}, "geometry": {"type": "Point", "coordinates": [31.557170174077868, 30.264270500231543, 165.25]}}, {"type": "Feature", "properties": {"ID": "65", "قطر_المحبس__mm_": 160, "الشركة_المنفذة": "عوض خليفة", "Easting": "031° 33' 12.35\" E", "Northing": "30° 15' 58.44\" N", "GlobalID": "{0357CFD7-0BBF-4674-9AA4-1CBA72493D2E}", "القطاع": "القطاع الثاني", "Start1": "18/09/2021", "End1": "28/10/2023", "Installation_Date": null, "Meter_type": null, "Meter_Id": null, "Last_Readin_Date": null, "Current_Reading": null, "Status": null, "Last_Maintenance_date": null, "Owner_Type": null}, "geometry": {"type": "Point", "coordinates": [31.555108632027732, 30.266398364303768, 170.52999999999884]}}, {"type": "Feature", "properties": {"ID": "66", "قطر_المحبس__mm_": 160, "الشركة_المنفذة": "عوض خليفة", "Easting": "031° 33' 11.37\" E", "Northing": "30° 16' 1.09\" N", "GlobalID": "{E26F7CA1-18B5-4B4F-AF50-1E5D09B0ACC1}", "القطاع": "القطاع الثاني", "Start1": "18/09/2021", "End1": "28/10/2023", "Installation_Date": null, "Meter_type": null, "Meter_Id": null, "Last_Readin_Date": null, "Current_Reading": null, "Status": null, "Last_Maintenance_date": null, "Owner_Type": null}, "geometry": {"type": "Point", "coordinates": [31.554834424909867, 30.267135423726618, 171.5500000000029]}}, {"type": "Feature", "properties": {"ID": "67", "قطر_المحبس__mm_": 160, "الشركة_المنفذة": "عوض خليفة", "Easting": "031° 33' 10.83\" E", "Northing": "30° 16' 3.7\" N", "GlobalID": "{BB77DF2E-C06B-44AA-A620-3A0E6E6A9907}", "القطاع": "القطاع الثاني", "Start1": "18/09/2021", "End1": "28/10/2023", "Installation_Date": null, "Meter_type": null, "Meter_Id": null, "Last_Readin_Date": null, "Current_Reading": null, "Status": null, "Last_Maintenance_date": null, "Owner_Type": null}, "geometry": {"type": "Point", "coordinates": [31.55468505020483, 30.26785964175071, 172.5]}}, {"type": "Feature", "properties": {"ID": "68", "قطر_المحبس__mm_": 160, "الشركة_المنفذة": "عوض خليفة", "Easting": "031° 33' 22.65\" E", "Northing": "30° 16' 4.77\" N", "GlobalID": "{4C501BE5-9200-4F19-8A90-5ECC6634782B}", "القطاع": "القطاع الثاني", "Start1": "18/09/2021", "End1": "28/10/2023", "Installation_Date": null, "Meter_type": null, "Meter_Id": null, "Last_Readin_Date": null, "Current_Reading": null, "Status": null, "Last_Maintenance_date": null, "Owner_Type": null}, "geometry": {"type": "Point", "coordinates": [31.557967538247876, 30.268157933532827, 173.00999999999476]}}, {"type": "Feature", "properties": {"ID": "70", "قطر_المحبس__mm_": 110, "الشركة_المنفذة": "عوض خليفة", "Easting": "031° 33' 27.67\" E", "Northing": "30° 15' 58.16\" N", "GlobalID": "{A0F8D184-A11A-4EC2-AB50-D32AACCD3F85}", "القطاع": "القطاع الثاني", "Start1": "18/09/2021", "End1": "28/10/2023", "Installation_Date": null, "Meter_type": null, "Meter_Id": null, "Last_Readin_Date": null, "Current_Reading": null, "Status": null, "Last_Maintenance_date": null, "Owner_Type": null}, "geometry": {"type": "Point", "coordinates": [31.559364288789943, 30.266320712561456, 169.30999999999767]}}, {"type": "Feature", "properties": {"ID": "79", "قطر_المحبس__mm_": 110, "الشركة_المنفذة": "عوض خليفة", "Easting": "031° 33' 54.17\" E", "Northing": "30° 16' 9.34\" N", "GlobalID": "{7540E632-0158-47E6-96A7-445D865FEDC7}", "القطاع": "القطاع الثاني", "Start1": "18/09/2021", "End1": "28/10/2023", "Installation_Date": null, "Meter_type": null, "Meter_Id": null, "Last_Readin_Date": null, "Current_Reading": null, "Status": null, "Last_Maintenance_date": null, "Owner_Type": null}, "geometry": {"type": "Point", "coordinates": [31.56672564859257, 30.26942648202882, 165.1999999999971]}}, {"type": "Feature", "properties": {"ID": "83", "قطر_المحبس__mm_": 110, "الشركة_المنفذة": "عوض خليفة", "Easting": "031° 34' 2.01\" E", "Northing": "30° 16' 20.65\" N", "GlobalID": "{E9853A0B-5E6B-4BDF-8ED1-5CBED0DC0767}", "القطاع": "القطاع الثاني", "Start1": "18/09/2021", "End1": "28/10/2023", "Installation_Date": null, "Meter_type": null, "Meter_Id": null, "Last_Readin_Date": null, "Current_Reading": null, "Status": null, "Last_Maintenance_date": null, "Owner_Type": null}, "geometry": {"type": "Point", "coordinates": [31.568902572927925, 30.272570121044406, 170.47000000000116]}}, {"type": "Feature", "properties": {"ID": "82", "قطر_المحبس__mm_": 110, "الشركة_المنفذة": "عوض خليفة", "Easting": "031° 34' 2.04\" E", "Northing": "30° 16' 15.58\" N", "GlobalID": "{4B5F0D47-A1DA-4582-A1C6-2EAFDB51C3B7}", "القطاع": "القطاع الثاني", "Start1": "18/09/2021", "End1": "28/10/2023", "Installation_Date": null, "Meter_type": null, "Meter_Id": null, "Last_Readin_Date": null, "Current_Reading": null, "Status": null, "Last_Maintenance_date": null, "Owner_Type": null}, "geometry": {"type": "Point", "coordinates": [31.56876276335286, 30.27102291832809, 0.0]}}, {"type": "Feature", "properties": {"ID": "77", "قطر_المحبس__mm_": 110, "الشركة_المنفذة": "عوض خليفة", "Easting": "031° 33' 48.54\" E", "Northing": "30° 16' 5.81\" N", "GlobalID": "{F850E33E-E5EA-4F91-B8BD-883ADD3837B8}", "القطاع": "القطاع الثاني", "Start1": "18/09/2021", "End1": "28/10/2023", "Installation_Date": null, "Meter_type": null, "Meter_Id": null, "Last_Readin_Date": null, "Current_Reading": null, "Status": null, "Last_Maintenance_date": null, "Owner_Type": null}, "geometry": {"type": "Point", "coordinates": [31.56516088171657, 30.26844726261147, 159.11000000000058]}}, {"type": "Feature", "properties": {"ID": "78", "قطر_المحبس__mm_": 110, "الشركة_المنفذة": "عوض خليفة", "Easting": "031° 33' 49.87\" E", "Northing": "30° 16' 6.59\" N", "GlobalID": "{72AFAE2B-0CD9-470C-BDB1-DA23C8392A51}", "القطاع": "القطاع الثاني", "Start1": "18/09/2021", "End1": "28/10/2023", "Installation_Date": null, "Meter_type": null, "Meter_Id": null, "Last_Readin_Date": null, "Current_Reading": null, "Status": null, "Last_Maintenance_date": null, "Owner_Type": null}, "geometry": {"type": "Point", "coordinates": [31.565528969994222, 30.268663236271937, 160.5500000000029]}}, {"type": "Feature", "properties": {"ID": "80", "قطر_المحبس__mm_": 110, "الشركة_المنفذة": "عوض خليفة", "Easting": "031° 33' 56.51\" E", "Northing": "30° 16' 11.05\" N", "GlobalID": "{BC03853F-AECB-4CDC-88FC-330C186A7495}", "القطاع": "القطاع الثاني", "Start1": "18/09/2021", "End1": "28/10/2023", "Installation_Date": null, "Meter_type": null, "Meter_Id": null, "Last_Readin_Date": null, "Current_Reading": null, "Status": null, "Last_Maintenance_date": null, "Owner_Type": null}, "geometry": {"type": "Point", "coordinates": [31.567373319373473, 30.269903695139448, 168.1999999999971]}}, {"type": "Feature", "properties": {"ID": "81", "قطر_المحبس__mm_": 110, "الشركة_المنفذة": "عوض خليفة", "Easting": "031° 33' 59.51\" E", "Northing": "30° 16' 13.35\" N", "GlobalID": "{8E54F761-66E8-4E30-A990-1FFF9C0F8FA2}", "القطاع": "القطاع الثاني", "Start1": "18/09/2021", "End1": "28/10/2023", "Installation_Date": null, "Meter_type": null, "Meter_Id": null, "Last_Readin_Date": null, "Current_Reading": null, "Status": null, "Last_Maintenance_date": null, "Owner_Type": null}, "geometry": {"type": "Point", "coordinates": [31.568207722946955, 30.270539921886083, 172.3000000000029]}}, {"type": "Feature", "properties": {"ID": "54", "قطر_المحبس__mm_": 110, "الشركة_المنفذة": "عوض خليفة", "Easting": "031° 34' 10.63\" E", "Northing": "30° 16' 22.64\" N", "GlobalID": "{A96BF77A-C7AB-42E2-A2E0-9ADC020406CA}", "القطاع": "القطاع الثاني", "Start1": "18/09/2021", "End1": "28/10/2023", "Installation_Date": null, "Meter_type": null, "Meter_Id": null, "Last_Readin_Date": null, "Current_Reading": null, "Status": null, "Last_Maintenance_date": null, "Owner_Type": null}, "geometry": {"type": "Point", "coordinates": [31.571297384521316, 30.273120524710027, 174.11999999999534]}}, {"type": "Feature", "properties": {"ID": "57", "قطر_المحبس__mm_": 110, "الشركة_المنفذة": "عوض خليفة", "Easting": "031° 34' 10.44\" E", "Northing": "30° 16' 10.61\" N", "GlobalID": "{6918DC77-0760-490B-9110-CF308AB14D28}", "القطاع": "القطاع الثاني", "Start1": "18/09/2021", "End1": "28/10/2023", "Installation_Date": null, "Meter_type": null, "Meter_Id": null, "Last_Readin_Date": null, "Current_Reading": null, "Status": null, "Last_Maintenance_date": null, "Owner_Type": null}, "geometry": {"type": "Point", "coordinates": [31.571244688934268, 30.26977981517678, 172.10000000000582]}}, {"type": "Feature", "properties": {"ID": "58", "قطر_المحبس__mm_": 110, "الشركة_المنفذة": "عوض خليفة", "Easting": "031° 34' 4.05\" E", "Northing": "30° 16' 4.21\" N", "GlobalID": "{89899611-1255-42C0-9DD8-35AE0113E6EE}", "القطاع": "القطاع الثاني", "Start1": "18/09/2021", "End1": "28/10/2023", "Installation_Date": null, "Meter_type": null, "Meter_Id": null, "Last_Readin_Date": null, "Current_Reading": null, "Status": null, "Last_Maintenance_date": null, "Owner_Type": null}, "geometry": {"type": "Point", "coordinates": [31.569468684070962, 30.268002197219378, 164.4600000000064]}}, {"type": "Feature", "properties": {"ID": "59", "قطر_المحبس__mm_": 110, "الشركة_المنفذة": "عوض خليفة", "Easting": "031° 33' 57.58\" E", "Northing": "30° 15' 59.61\" N", "GlobalID": "{CBC95172-6EA3-4741-B2D8-6235716412C7}", "القطاع": "القطاع الثاني", "Start1": "18/09/2021", "End1": "28/10/2023", "Installation_Date": null, "Meter_type": null, "Meter_Id": null, "Last_Readin_Date": null, "Current_Reading": null, "Status": null, "Last_Maintenance_date": null, "Owner_Type": null}, "geometry": {"type": "Point", "coordinates": [31.567671396746103, 30.26672571442772, 160.88999999999942]}}, {"type": "Feature", "properties": {"ID": "64", "قطر_المحبس__mm_": 160, "الشركة_المنفذة": "عوض خليفة", "Easting": "031° 33' 16.03\" E", "Northing": "30° 15' 53.75\" N", "GlobalID": "{94E65A3A-23AD-4D6C-84F6-5859DA395E95}", "القطاع": "القطاع الثاني", "Start1": "18/09/2021", "End1": "28/10/2023", "Installation_Date": null, "Meter_type": null, "Meter_Id": null, "Last_Readin_Date": null, "Current_Reading": null, "Status": null, "Last_Maintenance_date": null, "Owner_Type": null}, "geometry": {"type": "Point", "coordinates": [31.5561306843073, 30.265095968456045, 167.8000000000029]}}, {"type": "Feature", "properties": {"ID": "69", "قطر_المحبس__mm_": 110, "الشركة_المنفذة": "عوض خليفة", "Easting": "031° 33' 24.53\" E", "Northing": "30° 16' 0.25\" N", "GlobalID": "{8288EC8C-9F4C-4592-A146-9ACB1C265F7B}", "القطاع": "القطاع الثاني", "Start1": "18/09/2021", "End1": "28/10/2023", "Installation_Date": null, "Meter_type": null, "Meter_Id": null, "Last_Readin_Date": null, "Current_Reading": null, "Status": null, "Last_Maintenance_date": null, "Owner_Type": null}, "geometry": {"type": "Point", "coordinates": [31.55849152231981, 30.266902729905752, 0.0]}}, {"type": "Feature", "properties": {"ID": "72", "قطر_المحبس__mm_": 110, "الشركة_المنفذة": "عوض خليفة", "Easting": "031° 33' 39.17\" E", "Northing": "30° 16' 1.3\" N", "GlobalID": "{DBACDBF2-741F-45E4-8924-E47F451462B8}", "القطاع": "القطاع الثاني", "Start1": "18/09/2021", "End1": "28/10/2023", "Installation_Date": null, "Meter_type": null, "Meter_Id": null, "Last_Readin_Date": null, "Current_Reading": null, "Status": null, "Last_Maintenance_date": null, "Owner_Type": null}, "geometry": {"type": "Point", "coordinates": [31.56255629603441, 30.26719342141387, 0.0]}}, {"type": "Feature", "properties": {"ID": "73", "قطر_المحبس__mm_": 110, "الشركة_المنفذة": "عوض خليفة", "Easting": "031° 33' 39.48\" E", "Northing": "30° 16' 1.43\" N", "GlobalID": "{0D24382F-8AFC-4AF8-985D-400FFD785913}", "القطاع": "القطاع الثاني", "Start1": "18/09/2021", "End1": "28/10/2023", "Installation_Date": null, "Meter_type": null, "Meter_Id": null, "Last_Readin_Date": null, "Current_Reading": null, "Status": null, "Last_Maintenance_date": null, "Owner_Type": null}, "geometry": {"type": "Point", "coordinates": [31.5626431357528, 30.267229157760998, 0.0]}}, {"type": "Feature", "properties": {"ID": "93", "قطر_المحبس__mm_": 110, "الشركة_المنفذة": "عوض خليفة", "Easting": "031° 33' 47.78\" E", "Northing": "30° 15' 59.78\" N", "GlobalID": "{6574F523-E687-486F-AF91-84E278C92FC6}", "القطاع": "القطاع الثاني", "Start1": "18/09/2021", "End1": "28/10/2023", "Installation_Date": null, "Meter_type": null, "Meter_Id": null, "Last_Readin_Date": null, "Current_Reading": null, "Status": null, "Last_Maintenance_date": null, "Owner_Type": null}, "geometry": {"type": "Point", "coordinates": [31.56494867386106, 30.26677209695661, 165.25]}}, {"type": "Feature", "properties": {"ID": "2", "قطر_المحبس__mm_": 160, "الشركة_المنفذة": "التوحيد", "Easting": "031° 33' 47.44\" E", "Northing": "30° 16' 44.17\" N", "GlobalID": "{A2093BE2-49E6-4DD0-96B0-9B4FA4C9C7CC}", "القطاع": "القطاع الثالث", "Start1": "15/09/2021", "End1": "15/03/2023", "Installation_Date": null, "Meter_type": null, "Meter_Id": null, "Last_Readin_Date": null, "Current_Reading": null, "Status": null, "Last_Maintenance_date": null, "Owner_Type": null}, "geometry": {"type": "Point", "coordinates": [31.556901387371777, 30.276340355937528, 0.0]}}, {"type": "Feature", "properties": {"ID": "7", "قطر_المحبس__mm_": 110, "الشركة_المنفذة": "التوحيد", "Easting": "031° 33' 15.66\" E", "Northing": "30° 16' 7.09\" N", "GlobalID": "{81A498CE-E2EF-4920-A4FA-D0B65E7313A5}", "القطاع": "القطاع الثالث", "Start1": "15/09/2021", "End1": "15/03/2023", "Installation_Date": null, "Meter_type": null, "Meter_Id": null, "Last_Readin_Date": null, "Current_Reading": null, "Status": null, "Last_Maintenance_date": null, "Owner_Type": null}, "geometry": {"type": "Point", "coordinates": [31.557327170536684, 30.269261103099993, 0.0]}}, {"type": "Feature", "properties": {"ID": "5", "قطر_المحبس__mm_": 160, "الشركة_المنفذة": "عوض خليفة", "Easting": "031° 33' 38.26\" E", "Northing": "30° 15' 50.31\" N", "GlobalID": "{54B7E516-0ABE-4086-AC41-856A61F1953F}", "القطاع": "القطاع الثاني", "Start1": "18/09/2021", "End1": "28/10/2023", "Installation_Date": null, "Meter_type": null, "Meter_Id": null, "Last_Readin_Date": null, "Current_Reading": null, "Status": null, "Last_Maintenance_date": null, "Owner_Type": null}, "geometry": {"type": "Point", "coordinates": [31.559713024879223, 30.263530169315768, 167.0500000000029]}}, {"type": "Feature", "properties": {"ID": "4", "قطر_المحبس__mm_": 110, "الشركة_المنفذة": "عوض خليفة", "Easting": "031° 33' 57.58\" E", "Northing": "30° 15' 59.61\" N", "GlobalID": "{899022FF-9CE6-4E35-AE2D-B778C797E662}", "القطاع": "القطاع الثاني", "Start1": "18/09/2021", "End1": "28/10/2023", "Installation_Date": null, "Meter_type": null, "Meter_Id": null, "Last_Readin_Date": null, "Current_Reading": null, "Status": null, "Last_Maintenance_date": null, "Owner_Type": null}, "geometry": {"type": "Point", "coordinates": [31.56581156054346, 30.265591742777143, 160.88999999999942]}}]}