{"type": "FeatureCollection", "features": [{"type": "Feature", "properties": {"Station_Id": 4, "Station_type": null, "Capacity": null, "Status": null, "shape_Length": 32.78360000066459, "shape_Area": 65.39935192153482, "GlobalID": "{1966DFEF-437E-4324-BC57-35729AE093A8}", "القطاع": "القطاع الاول", "الشركةالمنفذة": "اولاد حجازي", "Start": "1/3/2022", "End": "3/2/2025"}, "geometry": {"type": "MultiPolygon", "coordinates": [[[[31.56533199417367, 30.2725130454878], [31.565331639896623, 30.272451128937934], [31.56527324613391, 30.27245138064672], [31.56523632992723, 30.27245153976217], [31.565232627186894, 30.272451555721066], [31.565232981401792, 30.272513472271978], [31.565299228590913, 30.2725131867287], [31.56533199417367, 30.2725130454878]]]]}}, {"type": "Feature", "properties": {"Station_Id": 9, "Station_type": null, "Capacity": null, "Status": null, "shape_Length": 29.76550000229649, "shape_Area": 54.03264290232855, "GlobalID": "{7238DE69-9292-41DB-B400-3494F34E2E10}", "القطاع": "القطاع الاول", "الشركةالمنفذة": "اولاد حجازي", "Start": "1/3/2022", "End": "3/2/2025"}, "geometry": {"type": "MultiPolygon", "coordinates": [[[[31.566518343867973, 30.273672714864958], [31.566518018881, 30.273616039080828], [31.566504268803836, 30.273616098479405], [31.56642864909966, 30.27361642602312], [31.566428974030114, 30.273673100906073], [31.566486404096583, 30.27367285283871], [31.566518343867973, 30.273672714864958]]]]}}, {"type": "Feature", "properties": {"Station_Id": 24, "Station_type": null, "Capacity": null, "Status": null, "shape_Length": 20.058679738081032, "shape_Area": 24.37989418679997, "GlobalID": "{E908F625-D082-47FC-995E-AC2243BACA4B}", "القطاع": "القطاع الاول", "الشركةالمنفذة": "اولاد حجازي", "Start": "1/3/2022", "End": "3/2/2025"}, "geometry": {"type": "MultiPolygon", "coordinates": [[[[31.564943884877103, 30.271408386616848], [31.56494631834886, 30.27137050833612], [31.564940007300017, 30.27137072855963], [31.564892147636336, 30.271372396928147], [31.56488584697413, 30.27137261620227], [31.564883413479098, 30.271410494482183], [31.564889842979852, 30.27141027014298], [31.564943884877103, 30.271408386616848]]]]}}, {"type": "Feature", "properties": {"Station_Id": 20, "Station_type": null, "Capacity": null, "Status": null, "shape_Length": 29.598799999803305, "shape_Area": 51.60670983824102, "GlobalID": "{C4F0933E-9D27-4F83-ADFD-3C2C1B45F676}", "القطاع": "القطاع الاول", "الشركةالمنفذة": "اولاد حجازي", "Start": "1/3/2022", "End": "3/2/2025"}, "geometry": {"type": "MultiPolygon", "coordinates": [[[[31.563539683608496, 30.272577988728173], [31.56353939420008, 30.272527248207794], [31.56351684414454, 30.272527345105335], [31.56344405399034, 30.27252765785794], [31.563444343349715, 30.272578398379146], [31.56345927592356, 30.272578334222562], [31.563539683608496, 30.272577988728173]]]]}}, {"type": "Feature", "properties": {"Station_Id": 19, "Station_type": null, "Capacity": null, "Status": null, "shape_Length": 29.59880000166595, "shape_Area": 51.60670985009042, "GlobalID": "{8BC0EBE0-D8C5-4AEB-BBE7-365C7FAE2215}", "القطاع": "القطاع الاول", "الشركةالمنفذة": "اولاد حجازي", "Start": "1/3/2022", "End": "3/2/2025"}, "geometry": {"type": "MultiPolygon", "coordinates": [[[[31.563241490177635, 30.272830985056505], [31.563241200919666, 30.272780244535483], [31.56322558138785, 30.27278031161775], [31.563160560279673, 30.272780590848285], [31.563145860460555, 30.272780653971584], [31.563146149669475, 30.27283139449343], [31.56316822798815, 30.272831299684945], [31.563241490177635, 30.272830985056505]]]]}}, {"type": "Feature", "properties": {"Station_Id": 4, "Station_type": null, "Capacity": null, "Status": null, "shape_Length": 29.598400000482798, "shape_Area": 51.60487500135787, "GlobalID": "{3282096D-E36F-43C1-A0D1-602A5B6CA30C}", "القطاع": "القطاع الاول", "الشركةالمنفذة": "اولاد حجازي", "Start": "1/3/2022", "End": "3/2/2025"}, "geometry": {"type": "MultiPolygon", "coordinates": [[[[31.562779242354125, 30.27324953150533], [31.562778953339354, 30.27319879278759], [31.56276903494575, 30.27319883535033], [31.562683612468156, 30.27319920189221], [31.562683901433896, 30.273249940610782], [31.562714573230235, 30.273249809006472], [31.562759467910404, 30.273249616362673], [31.562779242354125, 30.27324953150533]]]]}}, {"type": "Feature", "properties": {"Station_Id": 3, "Station_type": null, "Capacity": null, "Status": null, "shape_Length": 29.598399998620152, "shape_Area": 51.60487499611918, "GlobalID": "{E791CADE-6FFB-4F27-8AF1-6C1836FAB4C4}", "القطاع": "القطاع الاول", "الشركةالمنفذة": "اولاد حجازي", "Start": "1/3/2022", "End": "3/2/2025"}, "geometry": {"type": "MultiPolygon", "coordinates": [[[[31.562537461149276, 30.27347426125138], [31.56253717225626, 30.273423522533264], [31.56253255807252, 30.27342354232575], [31.56244183116392, 30.273423931464578], [31.5624421200079, 30.273474670183514], [31.56247960299615, 30.27347450942176], [31.562537461149276, 30.27347426125138]]]]}}, {"type": "Feature", "properties": {"Station_Id": 2, "Station_type": null, "Capacity": null, "Status": null, "shape_Length": 29.598799999803305, "shape_Area": 51.605999999446794, "GlobalID": "{3D9C648B-D2AB-4C5A-A039-E394CB12A8FB}", "القطاع": "القطاع الاول", "الشركةالمنفذة": "اولاد حجازي", "Start": "1/3/2022", "End": "3/2/2025"}, "geometry": {"type": "MultiPolygon", "coordinates": [[[[31.562430382814533, 30.273584966496077], [31.562430093975316, 30.27353422777791], [31.56241845250113, 30.273534277704133], [31.56235077980674, 30.273534567908214], [31.56233475069577, 30.273534636641507], [31.562335039485955, 30.273585375360504], [31.562366183199888, 30.273585241813358], [31.562391274424666, 30.273585134214482], [31.562430382814533, 30.273584966496077]]]]}}, {"type": "Feature", "properties": {"Station_Id": 1, "Station_type": null, "Capacity": null, "Status": null, "shape_Length": 29.598400000482798, "shape_Area": 51.60487500135787, "GlobalID": "{C734DCB9-3F3C-4773-9C99-54F061226513}", "القطاع": "القطاع الاول", "الشركةالمنفذة": "اولاد حجازي", "Start": "1/3/2022", "End": "3/2/2025"}, "geometry": {"type": "MultiPolygon", "coordinates": [[[[31.562168078237097, 30.273847227411867], [31.56216778952977, 30.27379648869344], [31.56214873932083, 30.273796570354847], [31.56207244807092, 30.27379689736032], [31.56207273672921, 30.27384763607959], [31.562096243188442, 30.27384753532896], [31.562168078237097, 30.273847227411867]]]]}}, {"type": "Feature", "properties": {"Station_Id": 3, "Station_type": null, "Capacity": null, "Status": null, "shape_Length": 29.598400000482798, "shape_Area": 51.60487500135787, "GlobalID": "{8CC7795D-967C-44AC-BB56-DE531BAA1F53}", "القطاع": "القطاع الاول", "الشركةالمنفذة": "اولاد حجازي", "Start": "1/3/2022", "End": "3/2/2025"}, "geometry": {"type": "MultiPolygon", "coordinates": [[[[31.568002806806525, 30.276147862859727], [31.568002547517395, 30.276102767250045], [31.568002515071292, 30.27609712421019], [31.567917724108167, 30.276097491452504], [31.567907171484638, 30.276097537153657], [31.56790746317083, 30.276148275804037], [31.567943932823603, 30.276148117857943], [31.568002806806525, 30.276147862859727]]]]}}, {"type": "Feature", "properties": {"Station_Id": 4, "Station_type": null, "Capacity": null, "Status": null, "shape_Length": 29.598399998620152, "shape_Area": 51.60487499611918, "GlobalID": "{FC04886F-651F-411E-AFD8-65FE59F3072E}", "القطاع": "القطاع الاول", "الشركةالمنفذة": "اولاد حجازي", "Start": "1/3/2022", "End": "3/2/2025"}, "geometry": {"type": "MultiPolygon", "coordinates": [[[[31.56834233050503, 30.27588844900709], [31.568342069532484, 30.27584308730225], [31.56834203859818, 30.275837710358505], [31.56824669526788, 30.27583812354602], [31.568246987125697, 30.275888862195448], [31.568281136022833, 30.275888714212794], [31.56834233050503, 30.27588844900709]]]]}}, {"type": "Feature", "properties": {"Station_Id": 2, "Station_type": null, "Capacity": null, "Status": null, "shape_Length": 21.172400001436472, "shape_Area": 27.99887112379249, "GlobalID": "{D3E19246-111E-4EDC-AD62-7552AF6545BC}", "القطاع": "القطاع الاول", "الشركةالمنفذة": "اولاد حجازي", "Start": "1/3/2022", "End": "3/2/2025"}, "geometry": {"type": "MultiPolygon", "coordinates": [[[[31.56471497062606, 30.272152620480288], [31.564728349503078, 30.272152562869763], [31.56477137307818, 30.27215237759747], [31.564771152987827, 30.27211387390812], [31.5647711070889, 30.272105844112783], [31.56471470466337, 30.272106086995144], [31.56471497062606, 30.272152620480288]]]]}}, {"type": "Feature", "properties": {"Station_Id": 3, "Station_type": null, "Capacity": null, "Status": null, "shape_Length": 29.598799999803305, "shape_Area": 51.605999999446794, "GlobalID": "{E32BADAD-FE16-4F4D-8B05-062E47F59444}", "القطاع": "القطاع الاول", "الشركةالمنفذة": "اولاد حجازي", "Start": "1/3/2022", "End": "3/2/2025"}, "geometry": {"type": "MultiPolygon", "coordinates": [[[[31.567294464420524, 30.275048665008526], [31.567294227604656, 30.2750074246222], [31.567294173062482, 30.27499792634421], [31.567198828448088, 30.274998338767418], [31.56719911975711, 30.27504907743256], [31.567246069812505, 30.2750488743535], [31.567247366792582, 30.275048868743287], [31.567294464420524, 30.275048665008526]]]]}}]}