{"type": "FeatureCollection", "features": [{"type": "Feature", "properties": {"Room_Id": 36, "Room_type": "غرفة الري", "Installation_Date": "2021-09-21 00:00:00+00:00", "Room_contents": "غرفة رقم 36", "shape_Length": 66.24331208727958, "shape_Area": 272.64376847587414, "GlobalID": "{4A896137-1100-4CFD-A431-9DEE89D78963}", "القطاع": "القطاع الاول", "الشركة_المنفذة": "اولاد حجازي", "Start": "21/09/2021", "End": "20/09/2022", "شكل_الغرفة": "مستطيل"}, "geometry": {"type": "MultiPolygon", "coordinates": [[[[31.56564761388878, 30.270896090924687], [31.565691529565825, 30.27085197016994], [31.565709546963564, 30.270833869617743], [31.565768766551702, 30.270774373335232], [31.565648619213057, 30.270684126138033], [31.56557150102249, 30.270761602418983], [31.565527465459446, 30.270805841818884], [31.56556823716176, 30.27083646718802], [31.565640741006852, 30.27089092750142], [31.56564761388878, 30.270896090924687]]]]}}, {"type": "Feature", "properties": {"Room_Id": 37, "Room_type": "غرفة الري", "Installation_Date": "2021-09-21 00:00:00+00:00", "Room_contents": "غرفة رقم 37", "shape_Length": 66.24283609928645, "shape_Area": 272.6408671462272, "GlobalID": "{9D7C1A5B-DEDB-4264-9CA7-F52F7213E793}", "القطاع": "القطاع الاول", "الشركة_المنفذة": "اولاد حجازي", "Start": "21/09/2021", "End": "20/09/2022", "شكل_الغرفة": "مستطيل"}, "geometry": {"type": "MultiPolygon", "coordinates": [[[[31.563087298648647, 30.26912027743425], [31.56303692340173, 30.269196053438115], [31.563007887282613, 30.26923973148743], [31.56311022112265, 30.26929089359331], [31.563168466581175, 30.269320013158765], [31.563197200750725, 30.269276789197566], [31.56324787781416, 30.269200559011292], [31.563087298648647, 30.26912027743425]]]]}}, {"type": "Feature", "properties": {"Room_Id": 1, "Room_type": "غرفة الري", "Installation_Date": "2021-09-21 00:00:00+00:00", "Room_contents": "غرفة نموذج 1 قفل و تقاطع", "shape_Length": 41.50411710498855, "shape_Area": 107.49411437406185, "GlobalID": "{EC2F73E8-689B-4EF5-82D7-59A7B9C31065}", "القطاع": "القطاع الثالث", "الشركة_المنفذة": "التوحيد", "Start": "15/09/2021", "End": "15/03/2023", "شكل_الغرفة": "مستطيل"}, "geometry": {"type": "MultiPolygon", "coordinates": [[[[31.564820894156668, 30.27907639959031], [31.564782024577823, 30.279116167590644], [31.56475388446467, 30.279144958415127], [31.564839403583544, 30.279207850319914], [31.56486868958762, 30.279177887297834], [31.564906413267675, 30.27913929325623], [31.5648557465911, 30.279102031646996], [31.564820894156668, 30.27907639959031]]]]}}, {"type": "Feature", "properties": {"Room_Id": 2, "Room_type": "غرفة الري", "Installation_Date": "2021-09-21 00:00:00+00:00", "Room_contents": "غرفة نموذج 2 تقاطع و هواء", "shape_Length": 35.63893253543778, "shape_Area": 79.3175169807826, "GlobalID": "{680EABC8-EB7B-4414-913F-E52AD956EB87}", "القطاع": "القطاع الثالث", "الشركة_المنفذة": "التوحيد", "Start": "15/09/2021", "End": "15/03/2023", "شكل_الغرفة": "مستطيل"}, "geometry": {"type": "MultiPolygon", "coordinates": [[[[31.556898679270994, 30.276287494145222], [31.55687100421245, 30.276315537139006], [31.556840042974077, 30.276346909993606], [31.556911265721823, 30.2764015492242], [31.556943215909165, 30.276369175394684], [31.556969904085776, 30.276342133335728], [31.55692267312222, 30.276305901284005], [31.556898679270994, 30.276287494145222]]]]}}, {"type": "Feature", "properties": {"Room_Id": 7, "Room_type": "غرفة الري", "Installation_Date": "2021-09-21 00:00:00+00:00", "Room_contents": "غرفة نموذج 4 قفل و تقاطع", "shape_Length": 34.23652742375049, "shape_Area": 72.4138231429811, "GlobalID": "{0881A3B5-D694-47D2-AFF4-DD0A5338347F}", "القطاع": "القطاع الثالث", "الشركة_المنفذة": "التوحيد", "Start": "15/09/2021", "End": "15/03/2023", "شكل_الغرفة": "مستطيل"}, "geometry": {"type": "MultiPolygon", "coordinates": [[[[31.557293290832646, 30.26921534471629], [31.55728242080723, 30.269242640770887], [31.557267345383988, 30.269280494182706], [31.55732088874085, 30.2692970771749], [31.557360097106276, 30.269309219861356], [31.557373885467076, 30.269274596718557], [31.557386042500617, 30.269244070377514], [31.557349030730357, 30.269232607526178], [31.557293290832646, 30.26921534471629]]]]}}, {"type": "Feature", "properties": {"Room_Id": 6, "Room_type": "غرفة الري", "Installation_Date": "2021-09-21 00:00:00+00:00", "Room_contents": "نموذج غرفة قفل و تقاطع 110/160/160", "shape_Length": 34.23640565462219, "shape_Area": 72.41330656348089, "GlobalID": "{D3A8DEB2-58DB-479E-9B12-3A3D2D176743}", "القطاع": "القطاع الثاني", "الشركة_المنفذة": "عوض خليفة", "Start": "18/09/2021", "End": "28/10/2023", "شكل_الغرفة": "مستطيل"}, "geometry": {"type": "MultiPolygon", "coordinates": [[[[31.55457433543729, 30.268273886202902], [31.554548388421548, 30.26833903515923], [31.55457552658006, 30.268347441131368], [31.55464113641611, 30.2683677627976], [31.55465842006333, 30.26832436899756], [31.554667085455897, 30.26830261381505], [31.554599517517385, 30.268281686148438], [31.55457433543729, 30.268273886202902]]]]}}, {"type": "Feature", "properties": {"Room_Id": 5, "Room_type": "غرفة الري", "Installation_Date": "2021-09-21 00:00:00+00:00", "Room_contents": "نموذج غرفة قفل و مناورة و تقاطع 225/160/160", "shape_Length": 34.23649768198172, "shape_Area": 72.41356593989285, "GlobalID": "{D44A30F4-198D-4A20-A24A-C651CCB5EAD4}", "القطاع": "القطاع الثاني", "الشركة_المنفذة": "عوض خليفة", "Start": "18/09/2021", "End": "28/10/2023", "شكل_الغرفة": "مستطيل"}, "geometry": {"type": "MultiPolygon", "coordinates": [[[[31.559674148168796, 30.263493768723993], [31.55967150811962, 30.2635079763769], [31.5596648122031, 30.263544012789513], [31.559661502550068, 30.263561822459735], [31.559758560126067, 30.26357626679584], [31.559769467118848, 30.263517560247642], [31.559771203611344, 30.263508214864622], [31.559674148168796, 30.263493768723993]]]]}}, {"type": "Feature", "properties": {"Room_Id": 4, "Room_type": "غرفة الري", "Installation_Date": "2021-09-21 00:00:00+00:00", "Room_contents": "نموذج غرفة قفل و تقاطع 160/110/110", "shape_Length": 34.23616754395898, "shape_Area": 72.41272792543216, "GlobalID": "{05208C3F-3A72-49F2-901B-778297F13EA8}", "القطاع": "القطاع الثاني", "الشركة_المنفذة": "عوض خليفة", "Start": "18/09/2021", "End": "28/10/2023", "شكل_الغرفة": "مستطيل"}, "geometry": {"type": "MultiPolygon", "coordinates": [[[[31.565786895113995, 30.2655528891851], [31.5657784634547, 30.265565991670954], [31.565748168796205, 30.26561306925313], [31.56577684623118, 30.265627298885843], [31.56583366129766, 30.265655489847482], [31.565862531419253, 30.265610624792725], [31.56587238550081, 30.265595309763977], [31.565786895113995, 30.2655528891851]]]]}}, {"type": "Feature", "properties": {"Room_Id": 9, "Room_type": "غرفة الري", "Installation_Date": "2021-09-21 00:00:00+00:00", "Room_contents": "نموذج غرفة هواء قطر 110مم", "shape_Length": 34.2364687130815, "shape_Area": 72.4137233273829, "GlobalID": "{91EE6BFE-3E68-4ACE-9A87-3770B38B5DA4}", "القطاع": "القطاع الثاني", "الشركة_المنفذة": "عوض خليفة", "Start": "18/09/2021", "End": "28/10/2023", "شكل_الغرفة": "مستطيل"}, "geometry": {"type": "MultiPolygon", "coordinates": [[[[31.56875885148165, 30.270958248848597], [31.568725632871228, 30.270989004657213], [31.56870453566356, 30.271008538791502], [31.568775711725582, 30.271067615258215], [31.568793479313904, 30.271051163403595], [31.568830025460493, 30.271017325295315], [31.56875885148165, 30.270958248848597]]]]}}, {"type": "Feature", "properties": {"Room_Id": 8, "Room_type": "غرفة الري", "Installation_Date": "2021-09-21 00:00:00+00:00", "Room_contents": "نموذج غرفة قفل و تقاطع 110/110/110", "shape_Length": 34.23627005395144, "shape_Area": 72.41309918740818, "GlobalID": "{17C4E50B-95B3-432D-A3D7-E166DBD82E78}", "القطاع": "القطاع الاول", "الشركة_المنفذة": "اولاد حجازي", "Start": "21/09/2021", "End": "20/09/2022", "شكل_الغرفة": "مستطيل"}, "geometry": {"type": "MultiPolygon", "coordinates": [[[[31.55918720471393, 30.269840080413516], [31.559165757974228, 30.269879863611603], [31.55915354646732, 30.269902515495435], [31.559197954138334, 30.269921020130308], [31.559242324322938, 30.26993950867297], [31.559275982525214, 30.269877073569095], [31.55923093214598, 30.269858301087705], [31.55918720471393, 30.269840080413516]]]]}}]}