{"type": "FeatureCollection", "features": [{"type": "Feature", "properties": {"GlobalID": "{2188D62A-402D-42D4-8D1F-9133135E3BE8}", "ID": "MH-A-23", "Easting": "031° 33' 50.13\" E", "Northing": "30° 16' 15.9\" N", "الشركة_المنفذة": "اولاد حجازي", "Start": "1/3/2022", "End": "3/2/2025", "القطاع": "القطاع الاول", "Depth": 2.0999999999999943, "GL": 164.2, "IL": 162.1, "dimention": null, "maintenance": null}, "geometry": {"type": "Point", "coordinates": [31.56560081197568, 30.271250252046766, 0.0]}}, {"type": "Feature", "properties": {"GlobalID": "{B9D2D9CC-625E-4A67-98A5-CFB312EA3EFB}", "ID": "MH-A-24", "Easting": "031° 33' 48.38\" E", "Northing": "30° 16' 17.24\" N", "الشركة_المنفذة": "اولاد حجازي", "Start": "1/3/2022", "End": "3/2/2025", "القطاع": "القطاع الاول", "Depth": 2.5800000000000125, "GL": 162.81, "IL": 160.23, "dimention": null, "maintenance": null}, "geometry": {"type": "Point", "coordinates": [31.565115206286386, 30.271621790079582, 0.0]}}, {"type": "Feature", "properties": {"GlobalID": "{987C1EA1-C1BE-4796-8B6B-A854EE10C08F}", "ID": "MH-A-21", "Easting": "031° 33' 52.26\" E", "Northing": "30° 16' 18.01\" N", "الشركة_المنفذة": "اولاد حجازي", "Start": "1/3/2022", "End": "3/2/2025", "القطاع": "القطاع الاول", "Depth": 2.4000000000000057, "GL": 166.65, "IL": 164.25, "dimention": null, "maintenance": null}, "geometry": {"type": "Point", "coordinates": [31.566194199215357, 30.271834559394698, 0.0]}}, {"type": "Feature", "properties": {"GlobalID": "{AE882DAB-B47F-4174-95D1-9A6BB3C098A6}", "ID": "MH-A-22", "Easting": "031° 33' 51.59\" E", "Northing": "30° 16' 18.33\" N", "الشركة_المنفذة": "اولاد حجازي", "Start": "1/3/2022", "End": "3/2/2025", "القطاع": "القطاع الاول", "Depth": 1.5999999999999943, "GL": 164.6, "IL": 163.0, "dimention": null, "maintenance": null}, "geometry": {"type": "Point", "coordinates": [31.566007641458583, 30.27192493401254, 0.0]}}, {"type": "Feature", "properties": {"GlobalID": "{CF1A1EB6-E737-4F23-89D8-2F1DAFEEE61C}", "ID": "MH-A-28", "Easting": "031° 33' 49.98\" E", "Northing": "30° 16' 19.75\" N", "الشركة_المنفذة": "اولاد حجازي", "Start": "1/3/2022", "End": "3/2/2025", "القطاع": "القطاع الاول", "Depth": 1.5300000000000011, "GL": 163.6, "IL": 162.07, "dimention": null, "maintenance": null}, "geometry": {"type": "Point", "coordinates": [31.565561752941093, 30.272318447427246, 0.0]}}, {"type": "Feature", "properties": {"GlobalID": "{A82495C8-26BC-4E4B-A6BD-B596D66E0AA7}", "ID": "MH-A-20", "Easting": "031° 33' 53.73\" E", "Northing": "30° 16' 20.43\" N", "الشركة_المنفذة": "اولاد حجازي", "Start": "1/3/2022", "End": "3/2/2025", "القطاع": "القطاع الاول", "Depth": 2.5, "GL": 166.65, "IL": 164.15, "dimention": null, "maintenance": null}, "geometry": {"type": "Point", "coordinates": [31.566601033124247, 30.27250923938347, 0.0]}}, {"type": "Feature", "properties": {"GlobalID": "{E7B53BFB-5968-4750-9711-8E3E22B3AA7C}", "ID": "MH-A-25", "Easting": "031° 33' 43.81\" E", "Northing": "30° 16' 21.04\" N", "الشركة_المنفذة": "اولاد حجازي", "Start": "1/3/2022", "End": "3/2/2025", "القطاع": "القطاع الاول", "Depth": 2.0, "GL": 165.35, "IL": 163.35, "dimention": null, "maintenance": null}, "geometry": {"type": "Point", "coordinates": [31.56384747851491, 30.272676161163925, 0.0]}}, {"type": "Feature", "properties": {"GlobalID": "{290C912E-9E97-4A93-BC5B-C8CFB933148D}", "ID": "MH-A-19", "Easting": "031° 33' 55.85\" E", "Northing": "30° 16' 22.53\" N", "الشركة_المنفذة": "اولاد حجازي", "Start": "1/3/2022", "End": "3/2/2025", "القطاع": "القطاع الاول", "Depth": 1.4300000000000068, "GL": 165.77, "IL": 164.34, "dimention": null, "maintenance": null}, "geometry": {"type": "Point", "coordinates": [31.56719165378556, 30.2730908045107, 0.0]}}, {"type": "Feature", "properties": {"GlobalID": "{97907DF0-E6F2-4FDA-A80F-2F0A755FD39D}", "ID": "MH-A-27", "Easting": "031° 33' 46.0\" E", "Northing": "30° 16' 22.95\" N", "الشركة_المنفذة": "اولاد حجازي", "Start": "1/3/2022", "End": "3/2/2025", "القطاع": "القطاع الاول", "Depth": 1.6999999999999886, "GL": 166.0, "IL": 164.3, "dimention": null, "maintenance": null}, "geometry": {"type": "Point", "coordinates": [31.564455412827673, 30.273208284637533, 0.0]}}, {"type": "Feature", "properties": {"GlobalID": "{5F2E64DA-71FF-4904-8023-0A16CBA5351A}", "ID": "MH-A-05", "Easting": "031° 33' 40.26\" E", "Northing": "30° 16' 23.43\" N", "الشركة_المنفذة": "اولاد حجازي", "Start": "1/3/2022", "End": "3/2/2025", "القطاع": "القطاع الاول", "Depth": 1.4000000000000057, "GL": 166.49, "IL": 165.09, "dimention": null, "maintenance": null}, "geometry": {"type": "Point", "coordinates": [31.56286135587041, 30.273340007685125, 0.0]}}, {"type": "Feature", "properties": {"GlobalID": "{BF1691CB-FA49-4FEA-8DDD-4E079BE57D4F}", "ID": "MH-A-29", "Easting": "031° 33' 51.59\" E", "Northing": "30° 16' 24.22\" N", "الشركة_المنفذة": "اولاد حجازي", "Start": "1/3/2022", "End": "3/2/2025", "القطاع": "القطاع الاول", "Depth": 1.5900000000000034, "GL": 165.3, "IL": 163.71, "dimention": null, "maintenance": null}, "geometry": {"type": "Point", "coordinates": [31.56600829737278, 30.27356036133451, 0.0]}}, {"type": "Feature", "properties": {"GlobalID": "{F5230714-C73C-419A-B47B-610E1F717C38}", "ID": "MH-A-29", "Easting": "031° 33' 50.95\" E", "Northing": "30° 16' 24.72\" N", "الشركة_المنفذة": "اولاد حجازي", "Start": "1/3/2022", "End": "3/2/2025", "القطاع": "القطاع الاول", "Depth": 1.490000000000009, "GL": 165.3, "IL": 163.81, "dimention": null, "maintenance": null}, "geometry": {"type": "Point", "coordinates": [31.565829847212154, 30.273698389941906, 0.0]}}, {"type": "Feature", "properties": {"GlobalID": "{DE3D6FF4-03AA-46C1-8075-14483F1CFB45}", "ID": "MH-A-04", "Easting": "031° 33' 38.66\" E", "Northing": "30° 16' 24.97\" N", "الشركة_المنفذة": "اولاد حجازي", "Start": "1/3/2022", "End": "3/2/2025", "القطاع": "القطاع الاول", "Depth": 1.5, "GL": 167.75, "IL": 166.25, "dimention": null, "maintenance": null}, "geometry": {"type": "Point", "coordinates": [31.562415145675043, 30.273768341547935, 0.0]}}, {"type": "Feature", "properties": {"GlobalID": "{861AD976-2AAE-423D-9CD6-A1E90A93CF04}", "ID": "MH-A-17", "Easting": "031° 33' 57.64\" E", "Northing": "30° 16' 25.11\" N", "الشركة_المنفذة": "اولاد حجازي", "Start": "1/3/2022", "End": "3/2/2025", "القطاع": "القطاع الاول", "Depth": 2.180000000000007, "GL": 167.68, "IL": 165.5, "dimention": null, "maintenance": null}, "geometry": {"type": "Point", "coordinates": [31.567687407415992, 30.273809078103607, 0.0]}}, {"type": "Feature", "properties": {"GlobalID": "{FE2D8FF0-BB1C-45D7-9172-41479D47803B}", "ID": "MH-A-31", "Easting": "031° 33' 50.31\" E", "Northing": "30° 16' 25.21\" N", "الشركة_المنفذة": "اولاد حجازي", "Start": "1/3/2022", "End": "3/2/2025", "القطاع": "القطاع الاول", "Depth": 1.3900000000000148, "GL": 165.3, "IL": 163.91, "dimention": null, "maintenance": null}, "geometry": {"type": "Point", "coordinates": [31.56565176860513, 30.27383678113029, 0.0]}}, {"type": "Feature", "properties": {"GlobalID": "{542CAD37-93A7-4273-9832-153A93902AA1}", "ID": "MH-A-18", "Easting": "031° 34' 0.57\" E", "Northing": "30° 16' 25.34\" N", "الشركة_المنفذة": "اولاد حجازي", "Start": "1/3/2022", "End": "3/2/2025", "القطاع": "القطاع الاول", "Depth": 1.5600000000000023, "GL": 166.98, "IL": 165.42, "dimention": null, "maintenance": null}, "geometry": {"type": "Point", "coordinates": [31.56850228071497, 30.27387161913966, 0.0]}}, {"type": "Feature", "properties": {"GlobalID": "{9110FDA5-0FE0-4426-9EDD-81B6B57AB798}", "ID": "MH-A-29", "Easting": "031° 33' 56.4\" E", "Northing": "30° 16' 26.06\" N", "الشركة_المنفذة": "اولاد حجازي", "Start": "1/3/2022", "End": "3/2/2025", "القطاع": "القطاع الاول", "Depth": 1.5300000000000011, "GL": 166.55, "IL": 165.02, "dimention": null, "maintenance": null}, "geometry": {"type": "Point", "coordinates": [31.567344983564205, 30.274071439893426, 0.0]}}, {"type": "Feature", "properties": {"GlobalID": "{7F8685F7-9A90-4186-9FD8-F4DB0B3C193A}", "ID": "MH-A-03", "Easting": "031° 33' 40.89\" E", "Northing": "30° 16' 26.98\" N", "الشركة_المنفذة": "اولاد حجازي", "Start": "1/3/2022", "End": "3/2/2025", "القطاع": "القطاع الاول", "Depth": 1.0999999999999943, "GL": 168.54, "IL": 167.44, "dimention": null, "maintenance": null}, "geometry": {"type": "Point", "coordinates": [31.56303595841565, 30.27432793764936, 0.0]}}, {"type": "Feature", "properties": {"GlobalID": "{68F42247-DC38-4477-961B-97ACD12B444F}", "ID": "MH-A-15", "Easting": "031° 33' 59.96\" E", "Northing": "30° 16' 27.55\" N", "الشركة_المنفذة": "اولاد حجازي", "Start": "1/3/2022", "End": "3/2/2025", "القطاع": "القطاع الاول", "Depth": 2.0, "GL": 168.81, "IL": 166.81, "dimention": null, "maintenance": null}, "geometry": {"type": "Point", "coordinates": [31.568331742040282, 30.27448653785712, 0.0]}}, {"type": "Feature", "properties": {"GlobalID": "{D3BEA82C-26FB-4037-AB78-35761A1505E3}", "ID": "MH-A-14", "Easting": "031° 34' 2.81\" E", "Northing": "30° 16' 27.55\" N", "الشركة_المنفذة": "اولاد حجازي", "Start": "1/3/2022", "End": "3/2/2025", "القطاع": "القطاع الاول", "Depth": 0.8199999999999932, "GL": 168.66, "IL": 167.84, "dimention": null, "maintenance": null}, "geometry": {"type": "Point", "coordinates": [31.569125339193267, 30.27448557673843, 0.0]}}, {"type": "Feature", "properties": {"GlobalID": "{89FB4D98-01B9-4DBD-A876-0E83EFB05E6D}", "ID": "MH-A-10", "Easting": "031° 33' 53.3\" E", "Northing": "30° 16' 28.66\" N", "الشركة_المنفذة": "اولاد حجازي", "Start": "1/3/2022", "End": "3/2/2025", "القطاع": "القطاع الاول", "Depth": 1.3300000000000125, "GL": 166.5, "IL": 165.17, "dimention": null, "maintenance": null}, "geometry": {"type": "Point", "coordinates": [31.566482614983915, 30.27479442291005, 0.0]}}, {"type": "Feature", "properties": {"GlobalID": "{4ACC631F-C043-4425-A4E3-E960406EB57A}", "ID": "MH-A-02", "Easting": "031° 33' 43.3\" E", "Northing": "30° 16' 28.85\" N", "الشركة_المنفذة": "اولاد حجازي", "Start": "1/3/2022", "End": "3/2/2025", "القطاع": "القطاع الاول", "Depth": 1.4000000000000057, "GL": 168.9, "IL": 167.5, "dimention": null, "maintenance": null}, "geometry": {"type": "Point", "coordinates": [31.563703792946555, 30.274848221394546, 0.0]}}, {"type": "Feature", "properties": {"GlobalID": "{65F3D9EC-DA9E-4EE1-A9DD-F4A3900C48A8}", "ID": "MH-A-12", "Easting": "031° 33' 56.79\" E", "Northing": "30° 16' 29.58\" N", "الشركة_المنفذة": "اولاد حجازي", "Start": "1/3/2022", "End": "3/2/2025", "القطاع": "القطاع الاول", "Depth": 1.8000000000000114, "GL": 168.56, "IL": 166.76, "dimention": null, "maintenance": null}, "geometry": {"type": "Point", "coordinates": [31.567452423125857, 30.27505077611711, 0.0]}}, {"type": "Feature", "properties": {"GlobalID": "{EF8E52D5-FA18-49A0-A495-1C8AC12E08A8}", "ID": "MH-A-13", "Easting": "031° 33' 59.53\" E", "Northing": "30° 16' 30.03\" N", "الشركة_المنفذة": "اولاد حجازي", "Start": "1/3/2022", "End": "3/2/2025", "القطاع": "القطاع الاول", "Depth": 1.0600000000000023, "GL": 168.66, "IL": 167.6, "dimention": null, "maintenance": null}, "geometry": {"type": "Point", "coordinates": [31.568213859525414, 30.27517595882033, 0.0]}}, {"type": "Feature", "properties": {"GlobalID": "{D460CA0D-5C6D-412A-A49C-E1239DE32B6F}", "ID": "MH-A-11", "Easting": "031° 33' 55.27\" E", "Northing": "30° 16' 30.34\" N", "الشركة_المنفذة": "اولاد حجازي", "Start": "1/3/2022", "End": "3/2/2025", "القطاع": "القطاع الاول", "Depth": 1.25, "GL": 167.7, "IL": 166.45, "dimention": null, "maintenance": null}, "geometry": {"type": "Point", "coordinates": [31.567030632977772, 30.27525985943766, 0.0]}}, {"type": "Feature", "properties": {"GlobalID": "{6E62B72D-4AAD-4A01-BCF0-B19A41B8F6F3}", "ID": "MH-A-01", "Easting": "031° 33' 45.68\" E", "Northing": "30° 16' 30.75\" N", "الشركة_المنفذة": "اولاد حجازي", "Start": "1/3/2022", "End": "3/2/2025", "القطاع": "القطاع الاول", "Depth": 1.5, "GL": 169.78, "IL": 168.28, "dimention": null, "maintenance": null}, "geometry": {"type": "Point", "coordinates": [31.56436508971382, 30.275374421916126, 0.0]}}, {"type": "Feature", "properties": {"GlobalID": "{55F838BE-535C-465D-BF02-A5C41CB680EC}", "ID": "MH-A-06", "Easting": "031° 33' 45.5\" E", "Northing": "30° 16' 31.15\" N", "الشركة_المنفذة": "اولاد حجازي", "Start": "1/3/2022", "End": "3/2/2025", "القطاع": "القطاع الاول", "Depth": 1.5, "GL": 169.46, "IL": 167.96, "dimention": null, "maintenance": null}, "geometry": {"type": "Point", "coordinates": [31.564314988789896, 30.275486222080055, 0.0]}}, {"type": "Feature", "properties": {"GlobalID": "{195F9FA3-D7FE-464D-B6E0-9B9080A674EF}", "ID": "MH-A-07", "Easting": "031° 33' 48.15\" E", "Northing": "30° 16' 32.37\" N", "الشركة_المنفذة": "اولاد حجازي", "Start": "1/3/2022", "End": "3/2/2025", "القطاع": "القطاع الاول", "Depth": 1.3499999999999943, "GL": 167.38, "IL": 166.03, "dimention": null, "maintenance": null}, "geometry": {"type": "Point", "coordinates": [31.56505247485568, 30.275823856370394, 0.0]}}, {"type": "Feature", "properties": {"GlobalID": "{66498C21-8458-4F66-9F6F-179F15AA7C06}", "ID": "MH-A-08", "Easting": "031° 33' 51.03\" E", "Northing": "30° 16' 33.78\" N", "الشركة_المنفذة": "اولاد حجازي", "Start": "1/3/2022", "End": "3/2/2025", "القطاع": "القطاع الاول", "Depth": 1.4599999999999795, "GL": 167.92, "IL": 166.46, "dimention": null, "maintenance": null}, "geometry": {"type": "Point", "coordinates": [31.565853417651965, 30.276215425430053, 0.0]}}, {"type": "Feature", "properties": {"GlobalID": "{EEACD72F-2264-4246-86F7-9D764FE527F3}", "ID": "MH-A-09", "Easting": "031° 33' 53.4\" E", "Northing": "30° 16' 35.66\" N", "الشركة_المنفذة": "اولاد حجازي", "Start": "1/3/2022", "End": "3/2/2025", "القطاع": "القطاع الاول", "Depth": 1.2199999999999989, "GL": 168.25, "IL": 167.03, "dimention": null, "maintenance": null}, "geometry": {"type": "Point", "coordinates": [31.566509771703842, 30.27673805325021, 0.0]}}]}