{"type": "FeatureCollection", "features": [{"type": "Feature", "properties": {"Shape_Length": 10.090406292237905, "Shape_Area": 6.182838837178857, "ID": "1", "Gas_Facility_Type": "غرفة غاز", "Sectors": "القطاع الاول", "Implementing_company": "غاز مصر", "Easting": "031° 34' 8.82\" E", "Northing": "30° 16' 28.67\" N", "Google_Map": "https://www.google.com/maps/search/?api=1&query=031° 34' 8.82\" E,30° 16' 28.67\" N"}, "geometry": {"type": "MultiPolygon", "coordinates": [[[[31.569135553656746, 30.27462699634271, 168.94199999999546], [31.569118872105467, 30.27461414246314, 168.94199999999546], [31.569098159492015, 30.274632183007757, 168.94199999999546], [31.569112664143, 30.27464600250293, 168.94199999999546], [31.56912327731509, 30.27463719129117, 168.94199999999546], [31.569133970111977, 30.274628311177665, 168.94199999999546], [31.569135553656746, 30.27462699634271, 168.94199999999546]]]]}}, {"type": "Feature", "properties": {"Shape_Length": 7.266613399642675, "Shape_Area": 3.089380425546416, "ID": "2", "Gas_Facility_Type": "غرفة غاز", "Sectors": "القطاع الاول", "Implementing_company": "غاز مصر", "Easting": "031° 33' 57.89\" E", "Northing": "30° 16' 37.02\" N", "Google_Map": "https://www.google.com/maps/search/?api=1&query=031° 33' 57.89\" E,30° 16' 37.02\" N"}, "geometry": {"type": "MultiPolygon", "coordinates": [[[[31.566093673465947, 30.276947670169456, 169.25], [31.56608329383882, 30.27693910948793, 169.25], [31.56606717803849, 30.27695425219448, 169.25], [31.566077387149104, 30.276962437461446, 169.25], [31.5660775019185, 30.27696233413313, 169.25], [31.566080888011253, 30.27695926429642, 169.25], [31.566090093004927, 30.276950917645973, 169.25], [31.566093673465947, 30.276947670169456, 169.25]]]]}}, {"type": "Feature", "properties": {"Shape_Length": 11.046736047178724, "Shape_Area": 7.219803802407877, "ID": "3", "Gas_Facility_Type": "غرفة غاز", "Sectors": "القطاع الثالث", "Implementing_company": "غاز مصر", "Easting": "031° 33' 42.0\" E", "Northing": "30° 16' 44.69\" N", "Google_Map": "https://www.google.com/maps/search/?api=1&query=031° 33' 42.0\" E,30° 16' 44.69\" N"}, "geometry": {"type": "MultiPolygon", "coordinates": [[[[31.56168363143436, 30.279091703681445, 174.93399999999383], [31.561685102293197, 30.27908077724876, 174.93399999999383], [31.561686094511916, 30.27907340871971, 174.93399999999383], [31.561651926197705, 30.279067233557228, 174.93399999999383], [31.56164844490135, 30.279087046507726, 174.93399999999383], [31.561665328822578, 30.279089281615526, 174.93399999999383], [31.56168363143436, 30.279091703681445, 174.93399999999383]]]]}}, {"type": "Feature", "properties": {"Shape_Length": 9.745696346989256, "Shape_Area": 5.737648950303826, "ID": "4", "Gas_Facility_Type": "غرفة غاز", "Sectors": "القطاع الثالث", "Implementing_company": "غاز مصر", "Easting": "031° 33' 16.46\" E", "Northing": "30° 16' 7.38\" N", "Google_Map": "https://www.google.com/maps/search/?api=1&query=031° 33' 16.46\" E,30° 16' 7.38\" N"}, "geometry": {"type": "MultiPolygon", "coordinates": [[[[31.554575823798483, 30.268731201375022, 170.89500000000407], [31.55458675410902, 30.268706745821902, 170.89500000000407], [31.554567239287138, 30.268700714276164, 170.89500000000407], [31.55456552127041, 30.268704566055877, 170.89500000000407], [31.55455663762826, 30.26872447656965, 170.89500000000407], [31.554556530894693, 30.26872471606285, 170.89500000000407], [31.554566788515753, 30.268728164507507, 170.89500000000407], [31.554575823798483, 30.268731201375022, 170.89500000000407]]]]}}, {"type": "Feature", "properties": {"Shape_Length": 10.813506065629388, "Shape_Area": 6.919552973604736, "ID": "5", "Gas_Facility_Type": "غرفة غاز", "Sectors": "القطاع الثاني", "Implementing_company": "غاز مصر", "Easting": "031° 33' 25.12\" E", "Northing": "30° 15' 52.32\" N", "Google_Map": "https://www.google.com/maps/search/?api=1&query=031° 33' 25.12\" E,30° 15' 52.32\" N"}, "geometry": {"type": "MultiPolygon", "coordinates": [[[[31.556998645024063, 30.264527895807483, 165.31500000000233], [31.556984316988206, 30.264515346056523, 165.31500000000233], [31.55697824976188, 30.264519850475004, 165.31500000000233], [31.55696003462163, 30.26453337280645, 165.31500000000233], [31.55695871521047, 30.264534352617833, 165.31500000000233], [31.556973689986467, 30.264549551638595, 165.31500000000233], [31.556998645024063, 30.264527895807483, 165.31500000000233]]]]}}, {"type": "Feature", "properties": {"Shape_Length": 7.259146781709523, "Shape_Area": 3.2319133001421023, "ID": "6", "Gas_Facility_Type": "غرفة غاز", "Sectors": "القطاع الرابع عشر", "Implementing_company": "غاز مصر", "Easting": "031° 30' 46.37\" E", "Northing": "30° 16' 11.37\" N", "Google_Map": "https://www.google.com/maps/search/?api=1&query=031° 30' 46.37\" E,30° 16' 11.37\" N"}, "geometry": {"type": "MultiPolygon", "coordinates": [[[[31.512877460319128, 30.26983475730239, 154.5460000000021], [31.512892775850684, 30.26983025032288, 154.5460000000021], [31.51288547353643, 30.26981288649152, 154.5460000000021], [31.512869804351173, 30.26981733170959, 154.5460000000021], [31.512877460319128, 30.26983475730239, 154.5460000000021]]]]}}, {"type": "Feature", "properties": {"Shape_Length": 7.27068597364428, "Shape_Area": 3.2456028488221125, "ID": "7", "Gas_Facility_Type": "غرفة غاز", "Sectors": "القطاع الخامس عشر", "Implementing_company": "غاز مصر", "Easting": "031° 30' 3.0\" E", "Northing": "30° 16' 23.94\" N", "Google_Map": "https://www.google.com/maps/search/?api=1&query=031° 30' 3.0\" E,30° 16' 23.94\" N"}, "geometry": {"type": "MultiPolygon", "coordinates": [[[[31.500836505638425, 30.273304312953336, 159.7899999999936], [31.500821266602696, 30.273309981878455, 159.7899999999936], [31.500829782549673, 30.273327051294054, 159.7899999999936], [31.500844635360597, 30.27332145690855, 159.7899999999936], [31.500836505638425, 30.273304312953336, 159.7899999999936]]]]}}, {"type": "Feature", "properties": {"Shape_Length": 7.39723876440362, "Shape_Area": 3.3578436494437813, "ID": "8", "Gas_Facility_Type": "غرفة غاز", "Sectors": "القطاع الثالث عشر", "Implementing_company": "غاز مصر", "Easting": "031° 31' 19.72\" E", "Northing": "30° 16' 25.55\" N", "Google_Map": "https://www.google.com/maps/search/?api=1&query=031° 31' 19.72\" E,30° 16' 25.55\" N"}, "geometry": {"type": "MultiPolygon", "coordinates": [[[[31.522156524712116, 30.273759882797382, 153.8469999999943], [31.522135984312953, 30.27375311893779, 153.8469999999943], [31.52213001681872, 30.27376648396346, 153.8469999999943], [31.52215015239767, 30.273773340542245, 153.8469999999943], [31.522156524712116, 30.273759882797382, 153.8469999999943]]]]}}, {"type": "Feature", "properties": {"Shape_Length": 9.78703172124545, "Shape_Area": 5.978372498770766, "ID": "9", "Gas_Facility_Type": "غرفة غاز", "Sectors": "القطاع السابع عشر", "Implementing_company": "غاز مصر", "Easting": "031° 31' 32.12\" E", "Northing": "30° 16' 15.33\" N", "Google_Map": "https://www.google.com/maps/search/?api=1&query=031° 31' 32.12\" E,30° 16' 15.33\" N"}, "geometry": {"type": "MultiPolygon", "coordinates": [[[[31.52560392757775, 30.270917448943443, 156.39400000000023], [31.525578268886612, 30.270911580211564, 156.39400000000023], [31.525572735929963, 30.27093227729388, 156.39400000000023], [31.52559776123536, 30.270938247790017, 156.39400000000023], [31.52560392757775, 30.270917448943443, 156.39400000000023]]]]}}, {"type": "Feature", "properties": {"Shape_Length": 9.819967166567322, "Shape_Area": 5.872204998985473, "ID": "10", "Gas_Facility_Type": "غرفة غاز", "Sectors": "القطاع السابع عشر", "Implementing_company": "غاز مصر", "Easting": "031° 31' 40.65\" E", "Northing": "30° 16' 6.07\" N", "Google_Map": "https://www.google.com/maps/search/?api=1&query=031° 31' 40.65\" E,30° 16' 6.07\" N"}, "geometry": {"type": "MultiPolygon", "coordinates": [[[[31.527976448879464, 30.26835663410197, 159.2430000000022], [31.527968075225107, 30.268339564996904, 159.2430000000022], [31.527940671424172, 30.268349300137373, 159.2430000000022], [31.527949118251172, 30.268366450133907, 159.2430000000022], [31.527976448879464, 30.26835663410197, 159.2430000000022]]]]}}, {"type": "Feature", "properties": {"Shape_Length": 10.196893267469298, "Shape_Area": 6.233379252093097, "ID": "11", "Gas_Facility_Type": "غرفة غاز", "Sectors": "القطاع السادس عشر", "Implementing_company": "غاز مصر", "Easting": "031° 32' 0.32\" E", "Northing": "30° 16' 5.27\" N", "Google_Map": "https://www.google.com/maps/search/?api=1&query=031° 32' 0.32\" E,30° 16' 5.27\" N"}, "geometry": {"type": "MultiPolygon", "coordinates": [[[[31.53343904595666, 30.268120576304952, 154.78699999999662], [31.533407067620008, 30.268120192185364, 154.78699999999662], [31.533406770442024, 30.26813829746868, 154.78699999999662], [31.53343845004662, 30.2681391690063, 154.78699999999662], [31.53343904595666, 30.268120576304952, 154.78699999999662]]]]}}, {"type": "Feature", "properties": {"Shape_Length": 10.838991202274967, "Shape_Area": 6.899771798871678, "ID": "12", "Gas_Facility_Type": "غرفة غاز", "Sectors": "القطاع الثاني عشر", "Implementing_company": "غاز مصر", "Easting": "031° 31' 53.75\" E", "Northing": "30° 16' 37.45\" N", "Google_Map": "https://www.google.com/maps/search/?api=1&query=031° 31' 53.75\" E,30° 16' 37.45\" N"}, "geometry": {"type": "MultiPolygon", "coordinates": [[[[31.531610222448997, 30.277084867418672, 159.94700000000012], [31.531617676280856, 30.27706786972817, 159.94700000000012], [31.531585198557888, 30.277056337929075, 159.94700000000012], [31.531577561360542, 30.277073832486046, 159.94700000000012], [31.531610222448997, 30.277084867418672, 159.94700000000012]]]]}}, {"type": "Feature", "properties": {"Shape_Length": 15.683132163421735, "Shape_Area": 13.77326749918282, "ID": "13", "Gas_Facility_Type": "غرفة غاز", "Sectors": "القطاع الخامس عشر", "Implementing_company": "غاز مصر", "Easting": "031° 29' 19.76\" E", "Northing": "30° 16' 37.04\" N", "Google_Map": "https://www.google.com/maps/search/?api=1&query=031° 29' 19.76\" E,30° 16' 37.04\" N"}, "geometry": {"type": "MultiPolygon", "coordinates": [[[[31.488799719015628, 30.27697478289896, 151.5280000000057], [31.48885123395965, 30.276961546391025, 151.5280000000057], [31.48884370902794, 30.27693835661083, 151.5280000000057], [31.48879196705524, 30.276951917797174, 151.5280000000057], [31.488799719015628, 30.27697478289896, 151.5280000000057]]]]}}, {"type": "Feature", "properties": {"Shape_Length": 15.62877066644427, "Shape_Area": 15.190729695937575, "ID": "14", "Gas_Facility_Type": "غرفة غاز", "Sectors": "القطاع الخامس عشر", "Implementing_company": "غاز مصر", "Easting": "031° 29' 19.52\" E", "Northing": "30° 16' 37.11\" N", "Google_Map": "https://www.google.com/maps/search/?api=1&query=031° 29' 19.52\" E,30° 16' 37.11\" N"}, "geometry": {"type": "MultiPolygon", "coordinates": [[[[31.488779982877546, 30.276987421102323, 151.18700000000536], [31.48876781141962, 30.276951448564997, 151.18700000000536], [31.4887314484948, 30.276960288828416, 151.18700000000536], [31.48874375714863, 30.276996685722796, 151.18700000000536], [31.488779982877546, 30.276987421102323, 151.18700000000536]]]]}}]}