{"type": "FeatureCollection", "features": [{"type": "Feature", "properties": {"Room_Id": 5, "Room_type": "تقاطع", "shape_Length": 32.23270056224969, "shape_Area": 64.90657382045751, "Room_contents": "اتنين محبس", "GlobalID": "{C6AB6FC9-2D51-4323-B40B-DBD56FA0A38B}", "القطاع": "القطاع الثالث", "الشركة_المنفذة": "التوحيد", "Start": "15/09/2021", "End": "15/03/2023", "GL": 172.4, "IL": 170.8, "Depth": 1.5999999999999943, "قطر__المحابس": "200-200", "dimention": null, "Fault_statement": null, "بيان_اعطال_المحابس": null, "مادة_تصنيع_المحابس": null, "نوع_المحابس": null, "تاريخ_تثبيت_العداد": null, "نوع_العداد": null, "رقم_العداد": null, "قطر_العداد": null, "سعة_جهاز_قياس_التصرف": null, "مادة_صنع_الوصلات": "مواسير بي في سي", "قطر_الوصلات": "225-250 mm"}, "geometry": {"type": "MultiPolygon", "coordinates": [[[[31.5590976426373, 30.269926012135667], [31.559142299205007, 30.269940752399], [31.559174751253877, 30.269951463832925], [31.55920332738509, 30.26988199101525], [31.559175282598858, 30.269872733836248], [31.55912621673762, 30.269856539342825], [31.559112629846243, 30.269889573303555], [31.5590976426373, 30.269926012135667]]]]}}, {"type": "Feature", "properties": {"Room_Id": 8, "Room_type": "تقاطع", "shape_Length": 39.41321985288513, "shape_Area": 95.56524316360137, "Room_contents": "اتنين محبس", "GlobalID": "{F49E6429-90B6-4E2F-BB33-D0C51A36AAF5}", "القطاع": "القطاع الثالث", "الشركة_المنفذة": "التوحيد", "Start": "15/09/2021", "End": "15/03/2023", "GL": 171.97, "IL": 170.37, "Depth": 1.5999999999999943, "قطر__المحابس": "200-200", "dimention": null, "Fault_statement": null, "بيان_اعطال_المحابس": null, "مادة_تصنيع_المحابس": null, "نوع_المحابس": null, "تاريخ_تثبيت_العداد": null, "نوع_العداد": null, "رقم_العداد": null, "قطر_العداد": null, "سعة_جهاز_قياس_التصرف": null, "مادة_صنع_الوصلات": "مواسير بي في سي", "قطر_الوصلات": "225-250-160mm"}, "geometry": {"type": "MultiPolygon", "coordinates": [[[[31.559622592520526, 30.272489131070213], [31.559711684492882, 30.272552510949726], [31.559742593702445, 30.27252057837017], [31.559769324637465, 30.27249296275931], [31.55974972026442, 30.272479016042094], [31.55973198471984, 30.272466399077032], [31.559680232683164, 30.272429582918225], [31.559657755421718, 30.272452803641336], [31.559622592520526, 30.272489131070213]]]]}}, {"type": "Feature", "properties": {"Room_Id": 7, "Room_type": "تقاطع", "shape_Length": 31.217489794695993, "shape_Area": 59.10319781792516, "Room_contents": "اتنين محبس", "GlobalID": "{9708E73D-C228-4648-B75C-81F7DD704A29}", "القطاع": "القطاع الثالث", "الشركة_المنفذة": "التوحيد", "Start": "15/09/2021", "End": "15/03/2023", "GL": 168.99, "IL": 167.388, "Depth": 1.6020000000000039, "قطر__المحابس": "200-200", "dimention": null, "Fault_statement": null, "بيان_اعطال_المحابس": null, "مادة_تصنيع_المحابس": null, "نوع_المحابس": null, "تاريخ_تثبيت_العداد": null, "نوع_العداد": null, "رقم_العداد": null, "قطر_العداد": null, "سعة_جهاز_قياس_التصرف": null, "مادة_صنع_الوصلات": "مواسير بي في سي", "قطر_الوصلات": "225 mm"}, "geometry": {"type": "MultiPolygon", "coordinates": [[[[31.561671077313324, 30.274072158154038], [31.561741798329546, 30.27412721366006], [31.561760827380173, 30.274107863593485], [31.561785436188394, 30.274082841024196], [31.561779450559268, 30.274078181450662], [31.561714715180447, 30.27402778554129], [31.56169163770696, 30.274051251827643], [31.561671077313324, 30.274072158154038]]]]}}, {"type": "Feature", "properties": {"Room_Id": 8, "Room_type": "تقاطع", "shape_Length": 34.180700620985, "shape_Area": 71.56839382200779, "Room_contents": "اتنين محبس", "GlobalID": "{8BE6D837-0433-4674-9B2B-6B5C2AB4E139}", "القطاع": "القطاع الثالث", "الشركة_المنفذة": "التوحيد", "Start": "15/09/2021", "End": "15/03/2023", "GL": 168.9, "IL": 167.305, "Depth": 1.5949999999999989, "قطر__المحابس": "200-200", "dimention": null, "Fault_statement": null, "بيان_اعطال_المحابس": null, "مادة_تصنيع_المحابس": null, "نوع_المحابس": null, "تاريخ_تثبيت_العداد": null, "نوع_العداد": null, "رقم_العداد": null, "قطر_العداد": null, "سعة_جهاز_قياس_التصرف": null, "مادة_صنع_الوصلات": "مواسير بي في سي", "قطر_الوصلات": "225-315 mm"}, "geometry": {"type": "MultiPolygon", "coordinates": [[[[31.5642167949342, 30.27608147896913], [31.564252941238628, 30.27610768294881], [31.564294564407746, 30.276137857597796], [31.56431821583332, 30.276113371788547], [31.564343574043424, 30.27608711784157], [31.564265804572553, 30.2760307374374], [31.564243401235313, 30.276053932455635], [31.5642167949342, 30.27608147896913]]]]}}, {"type": "Feature", "properties": {"Room_Id": 22, "Room_type": "تقاطع", "shape_Length": 56.02401688519449, "shape_Area": 194.51614012889945, "Room_contents": "اتنين محبس", "GlobalID": "{5362DBAE-518A-4EAA-82AA-1CEAE7A76301}", "القطاع": "القطاع الثاني", "الشركة_المنفذة": "عوض خليفة", "Start": "18/09/2021", "End": "28/10/2023", "GL": 162.18, "IL": 160.57999999999998, "Depth": 1.6000000000000227, "قطر__المحابس": "200-200", "dimention": null, "Fault_statement": null, "بيان_اعطال_المحابس": null, "مادة_تصنيع_المحابس": null, "نوع_المحابس": null, "تاريخ_تثبيت_العداد": null, "نوع_العداد": null, "رقم_العداد": null, "قطر_العداد": null, "سعة_جهاز_قياس_التصرف": null, "مادة_صنع_الوصلات": "مواسير بي في سي", "قطر_الوصلات": "225 mm"}, "geometry": {"type": "MultiPolygon", "coordinates": [[[[31.565649961953234, 30.270700293090464], [31.565606168074194, 30.270744623482777], [31.565546522169083, 30.270805001023778], [31.565560476645523, 30.270815483033672], [31.565646270116893, 30.270879925781266], [31.56570524583078, 30.270820659698302], [31.565750141970383, 30.270775542446525], [31.565674249203777, 30.270718535907417], [31.565649961953234, 30.270700293090464]]]]}}, {"type": "Feature", "properties": {"Room_Id": 21, "Room_type": "تقاطع", "shape_Length": 58.8894263033735, "shape_Area": 203.38221334548777, "Room_contents": "اتنين محبس", "GlobalID": "{B242228F-1198-49A0-B1BB-C5786E7AA7E2}", "القطاع": "القطاع الثاني", "الشركة_المنفذة": "عوض خليفة", "Start": "18/09/2021", "End": "28/10/2023", "GL": 167.29, "IL": 165.69, "Depth": 1.5999999999999943, "قطر__المحابس": "300-200", "dimention": null, "Fault_statement": null, "بيان_اعطال_المحابس": null, "مادة_تصنيع_المحابس": null, "نوع_المحابس": null, "تاريخ_تثبيت_العداد": null, "نوع_العداد": null, "رقم_العداد": null, "قطر_العداد": null, "سعة_جهاز_قياس_التصرف": null, "مادة_صنع_الوصلات": "مواسير بي في سي", "قطر_الوصلات": "110-250-315 mm"}, "geometry": {"type": "MultiPolygon", "coordinates": [[[[31.568277433127825, 30.27312875439662], [31.568221748881456, 30.27317048426161], [31.568190376029623, 30.27319399574306], [31.56830677621181, 30.273312822672878], [31.5683140876929, 30.273320286967422], [31.568347524972655, 30.273295229428022], [31.568401144828314, 30.273255047343632], [31.568316370813616, 30.273168504684794], [31.568277433127825, 30.27312875439662]]]]}}, {"type": "Feature", "properties": {"Room_Id": 24, "Room_type": "تقاطع", "shape_Length": 58.88909022610474, "shape_Area": 203.38073088944324, "Room_contents": "اتنين محبس", "GlobalID": "{1D93D383-1D39-435E-A8E5-98BD000E3F43}", "القطاع": "القطاع الثاني", "الشركة_المنفذة": "عوض خليفة", "Start": "18/09/2021", "End": "28/10/2023", "GL": 170.7, "IL": 169.1, "Depth": 1.5999999999999943, "قطر__المحابس": "200-150", "dimention": null, "Fault_statement": null, "بيان_اعطال_المحابس": null, "مادة_تصنيع_المحابس": null, "نوع_المحابس": null, "تاريخ_تثبيت_العداد": null, "نوع_العداد": null, "رقم_العداد": null, "قطر_العداد": null, "سعة_جهاز_قياس_التصرف": null, "مادة_صنع_الوصلات": "مواسير بي في سي", "قطر_الوصلات": "225-160 mm"}, "geometry": {"type": "MultiPolygon", "coordinates": [[[[31.569754969553937, 30.274545238801288], [31.569671143124527, 30.27459585218388], [31.569598186924896, 30.27463990193985], [31.569628634786383, 30.274677285652253], [31.569664581915063, 30.27472141981087], [31.569821364607293, 30.274626756593157], [31.569787922146705, 30.274585697483555], [31.569754969553937, 30.274545238801288]]]]}}, {"type": "Feature", "properties": {"Room_Id": 23, "Room_type": "تقاطع", "shape_Length": 55.92521408720839, "shape_Area": 193.95137054687018, "Room_contents": "اتنين محبس", "GlobalID": "{9D0421E3-FC4E-4BBC-810A-F743D9A3ABDF}", "القطاع": "القطاع الثاني", "الشركة_المنفذة": "عوض خليفة", "Start": "18/09/2021", "End": "28/10/2023", "GL": 162.29, "IL": 160.69, "Depth": 1.5999999999999943, "قطر__المحابس": "200-150", "dimention": null, "Fault_statement": null, "بيان_اعطال_المحابس": null, "مادة_تصنيع_المحابس": null, "نوع_المحابس": null, "تاريخ_تثبيت_العداد": null, "نوع_العداد": null, "رقم_العداد": null, "قطر_العداد": null, "سعة_جهاز_قياس_التصرف": null, "مادة_صنع_الوصلات": "مواسير بي في سي", "قطر_الوصلات": "225-160 mm"}, "geometry": {"type": "MultiPolygon", "coordinates": [[[[31.563092134960105, 30.269135930590817], [31.56306351492442, 30.269180218452092], [31.56302731722723, 30.269236231134606], [31.56309316215719, 30.269269140071618], [31.56316363024816, 30.2693043600057], [31.563201578055477, 30.26924727626105], [31.563229844404397, 30.269204756993886], [31.563092134960105, 30.269135930590817]]]]}}, {"type": "Feature", "properties": {"Room_Id": 3, "Room_type": "تقاطع", "shape_Length": 17.738025478464763, "shape_Area": 19.17935408194415, "Room_contents": "اتنين محبس", "GlobalID": "{35A87EFE-93A6-444A-9237-49BBFE6C19B8}", "القطاع": "القطاع الثالث", "الشركة_المنفذة": "التوحيد", "Start": "15/09/2021", "End": "15/03/2023", "GL": 171.23, "IL": 169.63, "Depth": 1.5999999999999943, "قطر__المحابس": "450-200", "dimention": null, "Fault_statement": null, "بيان_اعطال_المحابس": null, "مادة_تصنيع_المحابس": null, "نوع_المحابس": null, "تاريخ_تثبيت_العداد": null, "نوع_العداد": null, "رقم_العداد": null, "قطر_العداد": null, "سعة_جهاز_قياس_التصرف": null, "مادة_صنع_الوصلات": "مواسير بي في سي", "قطر_الوصلات": "225-450-560 mm"}, "geometry": {"type": "MultiPolygon", "coordinates": [[[[31.554508449501196, 30.268289353402974], [31.55452564462714, 30.268295180079274], [31.554544657662667, 30.26830162328226], [31.554553748849887, 30.2682801847286], [31.55456306772387, 30.26825820939683], [31.55454843183079, 30.268253250496628], [31.55452685749785, 30.268245939531166], [31.554508449501196, 30.268289353402974]]]]}}, {"type": "Feature", "properties": {"Room_Id": 4, "Room_type": "تقاطع و هواء", "shape_Length": 28.360019073857508, "shape_Area": 48.20565040418559, "Room_contents": "اربع محابس", "GlobalID": "{D1B3D292-F130-4825-B5BE-103466A55F59}", "القطاع": "القطاع الثالث", "الشركة_المنفذة": "التوحيد", "Start": "15/09/2021", "End": "15/03/2023", "GL": 172.8, "IL": 171.2, "Depth": 1.6000000000000227, "قطر__المحابس": "400-300-200-100", "dimention": null, "Fault_statement": null, "بيان_اعطال_المحابس": null, "مادة_تصنيع_المحابس": null, "نوع_المحابس": null, "تاريخ_تثبيت_العداد": null, "نوع_العداد": null, "رقم_العداد": null, "قطر_العداد": null, "سعة_جهاز_قياس_التصرف": null, "مادة_صنع_الوصلات": "مواسير بي في سي", "قطر_الوصلات": "400-315-450-250mm"}, "geometry": {"type": "MultiPolygon", "coordinates": [[[[31.557396368672823, 30.26932154820964], [31.557440872819125, 30.269334968211346], [31.55748005963221, 30.269346785315033], [31.557489232626338, 30.26932447123439], [31.55749980801989, 30.269298746875464], [31.557456089822725, 30.26928556349695], [31.557416117096594, 30.26927350978206], [31.557407056849193, 30.269295548255066], [31.557396368672823, 30.26932154820964]]]]}}, {"type": "Feature", "properties": {"Room_Id": 11, "Room_type": "هواء", "shape_Length": 32.20745779266065, "shape_Area": 62.7297721486059, "Room_contents": "اتنين محبس", "GlobalID": "{65C3ED31-E667-4ED2-AEFF-6A21C982700C}", "القطاع": "القطاع الثالث", "الشركة_المنفذة": "التوحيد", "Start": "15/09/2021", "End": "15/03/2023", "GL": 178.575, "IL": 176.9755, "Depth": 1.5994999999999777, "قطر__المحابس": "160-100", "dimention": null, "Fault_statement": null, "بيان_اعطال_المحابس": null, "مادة_تصنيع_المحابس": null, "نوع_المحابس": null, "تاريخ_تثبيت_العداد": null, "نوع_العداد": null, "رقم_العداد": null, "قطر_العداد": null, "سعة_جهاز_قياس_التصرف": null, "مادة_صنع_الوصلات": "مواسير بي في سي", "قطر_الوصلات": "225-160mm"}, "geometry": {"type": "MultiPolygon", "coordinates": [[[[31.559576915373395, 30.27847942429287], [31.55965283773479, 30.278534231363203], [31.55967393143517, 30.278512378641192], [31.55969690149875, 30.27848858212231], [31.559620977070274, 30.27843377508587], [31.55959387299511, 30.27846185589786], [31.559576915373395, 30.27847942429287]]]]}}, {"type": "Feature", "properties": {"Room_Id": 9, "Room_type": "تقاطع و هواء", "shape_Length": 35.255820958712974, "shape_Area": 76.81019833639448, "Room_contents": "ثلاث محابس", "GlobalID": "{8B9B76FF-F9F7-4F83-B7B2-876AF75C1440}", "القطاع": "القطاع الثالث", "الشركة_المنفذة": "التوحيد", "Start": "15/09/2021", "End": "15/03/2023", "GL": 176.25, "IL": 174.65, "Depth": 1.5999999999999943, "قطر__المحابس": "300-200-100", "dimention": null, "Fault_statement": null, "بيان_اعطال_المحابس": null, "مادة_تصنيع_المحابس": null, "نوع_المحابس": null, "تاريخ_تثبيت_العداد": null, "نوع_العداد": null, "رقم_العداد": null, "قطر_العداد": null, "سعة_جهاز_قياس_التصرف": null, "مادة_صنع_الوصلات": "مواسير بي في سي", "قطر_الوصلات": "225-315 mm"}, "geometry": {"type": "MultiPolygon", "coordinates": [[[[31.55666898280937, 30.27621785379778], [31.55674674815204, 30.276274236961424], [31.556769530729394, 30.276250884646032], [31.556799645604496, 30.2762199979947], [31.556759147519113, 30.276190636125552], [31.556721878196868, 30.276163614870658], [31.556694358962652, 30.276191833064782], [31.55666898280937, 30.27621785379778]]]]}}, {"type": "Feature", "properties": {"Room_Id": 2, "Room_type": "تقاطع", "shape_Length": 27.791352548584847, "shape_Area": 47.62778800589623, "Room_contents": "اتنين محبس", "GlobalID": "{61EDFA7E-CB7E-4A1A-B4AD-179CC4F7B79A}", "القطاع": "القطاع الثالث", "الشركة_المنفذة": "التوحيد", "Start": "15/09/2021", "End": "15/03/2023", "GL": 169.53, "IL": 168.81, "Depth": 0.7199999999999989, "قطر__المحابس": "300-200", "dimention": null, "Fault_statement": null, "بيان_اعطال_المحابس": null, "مادة_تصنيع_المحابس": null, "نوع_المحابس": null, "تاريخ_تثبيت_العداد": null, "نوع_العداد": null, "رقم_العداد": null, "قطر_العداد": null, "سعة_جهاز_قياس_التصرف": null, "مادة_صنع_الوصلات": "مواسير بي في سي", "قطر_الوصلات": "225-315-450-560 mm"}, "geometry": {"type": "MultiPolygon", "coordinates": [[[[31.55379034172168, 30.27394189497194], [31.5538505715531, 30.27398831961006], [31.55387104526931, 30.2739683412635], [31.553893013573198, 30.27394690431007], [31.553867586231792, 30.27392730473937], [31.55383278374775, 30.273900479691104], [31.553811669199145, 30.27392108314855], [31.55379034172168, 30.27394189497194]]]]}}, {"type": "Feature", "properties": {"Room_Id": 10, "Room_type": "تقاطع و غسيل", "shape_Length": 24.856691680637347, "shape_Area": 38.228577809984166, "Room_contents": "ثلاث محابس", "GlobalID": "{5E41CEFB-EEB8-4117-823C-F0AE7FCAC3D9}", "القطاع": "القطاع الثالث", "الشركة_المنفذة": "التوحيد", "Start": "15/09/2021", "End": "15/03/2023", "GL": 172.43, "IL": 170.43, "Depth": 2.0, "قطر__المحابس": "300-300-100", "dimention": null, "Fault_statement": null, "بيان_اعطال_المحابس": null, "مادة_تصنيع_المحابس": null, "نوع_المحابس": null, "تاريخ_تثبيت_العداد": null, "نوع_العداد": null, "رقم_العداد": null, "قطر_العداد": null, "سعة_جهاز_قياس_التصرف": null, "مادة_صنع_الوصلات": "مواسير بي في سي", "قطر_الوصلات": "315 mm"}, "geometry": {"type": "MultiPolygon", "coordinates": [[[[31.558606599848307, 30.27440144071694], [31.558630294020073, 30.274418705936135], [31.558661015579897, 30.27444109188494], [31.558681803699677, 30.2744197132874], [31.558698498044865, 30.27440254482701], [31.55864408440868, 30.274362895469462], [31.5586251272144, 30.27438238910871], [31.558606599848307, 30.27440144071694]]]]}}, {"type": "Feature", "properties": {"Room_Id": 1, "Room_type": "تقاطع", "shape_Length": 28.3121140081187, "shape_Area": 48.66223888649626, "Room_contents": "ثلاث محابس", "GlobalID": "{866C30EF-9126-4615-A88B-E2652FCBC591}", "القطاع": "القطاع الثالث", "الشركة_المنفذة": "التوحيد", "Start": "15/09/2021", "End": "15/03/2023", "GL": 167.35, "IL": 165.75, "Depth": 1.5999999999999943, "قطر__المحابس": "500-300-150", "dimention": null, "Fault_statement": null, "بيان_اعطال_المحابس": null, "مادة_تصنيع_المحابس": null, "نوع_المحابس": null, "تاريخ_تثبيت_العداد": null, "نوع_العداد": null, "رقم_العداد": null, "قطر_العداد": null, "سعة_جهاز_قياس_التصرف": null, "مادة_صنع_الوصلات": "مواسير بي في سي", "قطر_الوصلات": "315-160-560 mm"}, "geometry": {"type": "MultiPolygon", "coordinates": [[[[31.55222563626468, 30.27263537779061], [31.552203139705394, 30.27265621412756], [31.552183670389056, 30.27267424678899], [31.552244654763747, 30.272726532300116], [31.55226271207497, 30.27271004716984], [31.55226671768336, 30.272706389650427], [31.552286665089934, 30.272688179064794], [31.552273503785646, 30.2726767920531], [31.552251476388168, 30.27265773440356], [31.55222563626468, 30.27263537779061]]]]}}, {"type": "Feature", "properties": {"Room_Id": 15, "Room_type": "تقاطع", "shape_Length": 47.631143366801844, "shape_Area": 141.08849105660278, "Room_contents": "اتنين محبس", "GlobalID": "{476FE463-799E-4A15-9F79-440DC96484E5}", "القطاع": "القطاع الثاني", "الشركة_المنفذة": "عوض خليفة", "Start": "18/09/2021", "End": "28/10/2023", "GL": 168.13, "IL": 166.53, "Depth": 1.5999999999999943, "قطر__المحابس": "200-150", "dimention": null, "Fault_statement": null, "بيان_اعطال_المحابس": null, "مادة_تصنيع_المحابس": null, "نوع_المحابس": null, "تاريخ_تثبيت_العداد": null, "نوع_العداد": null, "رقم_العداد": null, "قطر_العداد": null, "سعة_جهاز_قياس_التصرف": null, "مادة_صنع_الوصلات": "مواسير بي في سي", "قطر_الوصلات": "225-160 mm"}, "geometry": {"type": "MultiPolygon", "coordinates": [[[[31.55551261113757, 30.26585142262674], [31.55547802574493, 30.26591326358229], [31.55545475547084, 30.265954870643288], [31.555521668673045, 30.26598306753705], [31.55555821585242, 30.265998468513537], [31.555616071434752, 30.265895020453005], [31.555575872280237, 30.26587808073696], [31.55551261113757, 30.26585142262674]]]]}}, {"type": "Feature", "properties": {"Room_Id": 14, "Room_type": "تقاطع", "shape_Length": 69.95978074856586, "shape_Area": 295.4172024981419, "Room_contents": "اتنين محبس", "GlobalID": "{F3D475A2-3387-49EC-97ED-E14907C5D52E}", "القطاع": "القطاع الثاني", "الشركة_المنفذة": "عوض خليفة", "Start": "18/09/2021", "End": "28/10/2023", "GL": 163.61, "IL": 162.01, "Depth": 1.6000000000000227, "قطر__المحابس": "150-150", "dimention": null, "Fault_statement": null, "بيان_اعطال_المحابس": null, "مادة_تصنيع_المحابس": null, "نوع_المحابس": null, "تاريخ_تثبيت_العداد": null, "نوع_العداد": null, "رقم_العداد": null, "قطر_العداد": null, "سعة_جهاز_قياس_التصرف": null, "مادة_صنع_الوصلات": "مواسير بي في سي", "قطر_الوصلات": "160 mm"}, "geometry": {"type": "MultiPolygon", "coordinates": [[[[31.556269532679146, 30.26301314737125], [31.556259441427226, 30.263076464153052], [31.556249231698853, 30.263140519309275], [31.556307368779596, 30.26314695601439], [31.556462859922654, 30.263164170505878], [31.556473201975965, 30.26309927947881], [31.556483160620864, 30.26303679673454], [31.556269532679146, 30.26301314737125]]]]}}, {"type": "Feature", "properties": {"Room_Id": 13, "Room_type": "تقاطع", "shape_Length": 58.88924117455592, "shape_Area": 203.38201680799003, "Room_contents": "اتنين محبس", "GlobalID": "{BDBB4F29-3339-4B36-801C-593BD7329E25}", "القطاع": "القطاع الثاني", "الشركة_المنفذة": "عوض خليفة", "Start": "18/09/2021", "End": "28/10/2023", "GL": 165.555, "IL": 163.955, "Depth": 1.5999999999999943, "قطر__المحابس": "200-150", "dimention": null, "Fault_statement": null, "بيان_اعطال_المحابس": null, "مادة_تصنيع_المحابس": null, "نوع_المحابس": null, "تاريخ_تثبيت_العداد": null, "نوع_العداد": null, "رقم_العداد": null, "قطر_العداد": null, "سعة_جهاز_قياس_التصرف": null, "مادة_صنع_الوصلات": "مواسير بي في سي", "قطر_الوصلات": "225-160 mm"}, "geometry": {"type": "MultiPolygon", "coordinates": [[[[31.559584455537582, 30.26356657660895], [31.559652939975017, 30.263580365354002], [31.559770482653565, 30.263604031383533], [31.559786641116577, 30.26354140107749], [31.55979561668498, 30.2635066132832], [31.55960958974431, 30.26346915854155], [31.55960027143491, 30.263505273792557], [31.559584455537582, 30.26356657660895]]]]}}, {"type": "Feature", "properties": {"Room_Id": 12, "Room_type": "تقاطع", "shape_Length": 58.889237530149266, "shape_Area": 203.381399555075, "Room_contents": "اتنين محبس", "GlobalID": "{7B4B57ED-9F98-455E-B3E7-9190EFEC51C8}", "القطاع": "القطاع الثاني", "الشركة_المنفذة": "عوض خليفة", "Start": "18/09/2021", "End": "28/10/2023", "GL": 160.44, "IL": 158.84, "Depth": 1.5999999999999943, "قطر__المحابس": "200-150", "dimention": null, "Fault_statement": null, "بيان_اعطال_المحابس": null, "مادة_تصنيع_المحابس": null, "نوع_المحابس": null, "تاريخ_تثبيت_العداد": null, "نوع_العداد": null, "رقم_العداد": null, "قطر_العداد": null, "سعة_جهاز_قياس_التصرف": null, "مادة_صنع_الوصلات": "مواسير بي في سي", "قطر_الوصلات": "225-160 mm"}, "geometry": {"type": "MultiPolygon", "coordinates": [[[[31.565553651839856, 30.265535653964985], [31.565644913026265, 30.265580683780303], [31.56571967549889, 30.265617572480306], [31.56574404239846, 30.26557969516794], [31.565775747046406, 30.26553041141789], [31.565609725568184, 30.265448492962342], [31.56558201008054, 30.2654915741523], [31.565553651839856, 30.265535653964985]]]]}}, {"type": "Feature", "properties": {"Room_Id": 18, "Room_type": "تقاطع", "shape_Length": 56.07895299018997, "shape_Area": 194.93690440380288, "Room_contents": "اتنين محبس", "GlobalID": "{D9D33F06-BCA0-4097-B30A-8A7D3E3BBD6C}", "القطاع": "القطاع الثاني", "الشركة_المنفذة": "عوض خليفة", "Start": "18/09/2021", "End": "28/10/2023", "GL": 160.39, "IL": 158.79000000000002, "Depth": 1.599999999999966, "قطر__المحابس": "300-200", "dimention": null, "Fault_statement": null, "بيان_اعطال_المحابس": null, "مادة_تصنيع_المحابس": null, "نوع_المحابس": null, "تاريخ_تثبيت_العداد": null, "نوع_العداد": null, "رقم_العداد": null, "قطر_العداد": null, "سعة_جهاز_قياس_التصرف": null, "مادة_صنع_الوصلات": "مواسير بي في سي", "قطر_الوصلات": "225-315 mm"}, "geometry": {"type": "MultiPolygon", "coordinates": [[[[31.564082309591882, 30.267669335620738], [31.56404087412035, 30.267731666481], [31.564016097307885, 30.26776893906296], [31.56415380544609, 30.26783776272062], [31.564178558522848, 30.267800525395117], [31.564220015566885, 30.267738161023985], [31.564170338467633, 30.267713332164373], [31.564082309591882, 30.267669335620738]]]]}}, {"type": "Feature", "properties": {"Room_Id": 16, "Room_type": null, "shape_Length": 47.631411823956775, "shape_Area": 141.09059969957997, "Room_contents": null, "GlobalID": "{46E41BF6-B541-4D40-82C0-C980E4AC3533}", "القطاع": "القطاع الثاني", "الشركة_المنفذة": "عوض خليفة", "Start": "18/09/2021", "End": "28/10/2023", "GL": 166.93, "IL": 164.93, "Depth": 2.0, "قطر__المحابس": null, "dimention": null, "Fault_statement": null, "بيان_اعطال_المحابس": null, "مادة_تصنيع_المحابس": null, "نوع_المحابس": null, "تاريخ_تثبيت_العداد": null, "نوع_العداد": null, "رقم_العداد": null, "قطر_العداد": null, "سعة_جهاز_قياس_التصرف": null, "مادة_صنع_الوصلات": "مواسير بي في سي", "قطر_الوصلات": "315-400 mm"}, "geometry": {"type": "MultiPolygon", "coordinates": [[[[31.55927005018424, 30.266275757690224], [31.55939809741208, 30.266246268627185], [31.559382648620904, 30.26619572077414], [31.559368605931752, 30.266149776371783], [31.55924055880915, 30.266179263600936], [31.559255201782204, 30.26622717371981], [31.55927005018424, 30.266275757690224]]]]}}, {"type": "Feature", "properties": {"Room_Id": 17, "Room_type": null, "shape_Length": 47.63140143118673, "shape_Area": 141.0901680910874, "Room_contents": null, "GlobalID": "{76051FEE-5408-49DD-A845-A251570E7951}", "القطاع": "القطاع الثاني", "الشركة_المنفذة": "عوض خليفة", "Start": "18/09/2021", "End": "28/10/2023", "GL": 166.93, "IL": 164.93, "Depth": 2.0, "قطر__المحابس": null, "dimention": null, "Fault_statement": null, "بيان_اعطال_المحابس": null, "مادة_تصنيع_المحابس": null, "نوع_المحابس": null, "تاريخ_تثبيت_العداد": null, "نوع_العداد": null, "رقم_العداد": null, "قطر_العداد": null, "سعة_جهاز_قياس_التصرف": null, "مادة_صنع_الوصلات": "مواسير بي في سي", "قطر_الوصلات": "315 mm"}, "geometry": {"type": "MultiPolygon", "coordinates": [[[[31.55982384668676, 30.266207944583847], [31.559857925821017, 30.266210008231525], [31.559956000931354, 30.266215948081523], [31.55995988110227, 30.266167689254377], [31.55996400781762, 30.266116358813473], [31.559859690396838, 30.266110041497548], [31.559831851627717, 30.266108355330957], [31.5598277792758, 30.266159021631278], [31.55982384668676, 30.266207944583847]]]]}}, {"type": "Feature", "properties": {"Room_Id": 19, "Room_type": "غسيل", "shape_Length": 56.07908215625285, "shape_Area": 194.9371635935073, "Room_contents": "اتنين محبس", "GlobalID": "{5776DD3B-35E4-43D5-B176-37A7CD7D7882}", "القطاع": "القطاع الثاني", "الشركة_المنفذة": "عوض خليفة", "Start": "18/09/2021", "End": "28/10/2023", "GL": 159.865, "IL": 157.865, "Depth": 2.0, "قطر__المحابس": "300-100", "dimention": null, "Fault_statement": null, "بيان_اعطال_المحابس": null, "مادة_تصنيع_المحابس": null, "نوع_المحابس": null, "تاريخ_تثبيت_العداد": null, "نوع_العداد": null, "رقم_العداد": null, "قطر_العداد": null, "سعة_جهاز_قياس_التصرف": null, "مادة_صنع_الوصلات": "مواسير بي في سي", "قطر_الوصلات": "110-315 mm"}, "geometry": {"type": "MultiPolygon", "coordinates": [[[[31.56546554065209, 30.268421555554944], [31.565426952513057, 30.268469968653317], [31.56539016379208, 30.26851612428516], [31.565455267687874, 30.268555142970644], [31.565520926398538, 30.268594494791245], [31.565558898552627, 30.268546853765905], [31.56559630112252, 30.268499927800693], [31.565531197198602, 30.26846090738122], [31.56546554065209, 30.268421555554944]]]]}}, {"type": "Feature", "properties": {"Room_Id": 20, "Room_type": "هواء", "shape_Length": 56.078962644907065, "shape_Area": 194.93719152077014, "Room_contents": "اتنين محبس", "GlobalID": "{FE23588A-1C71-4F5A-BA2D-E855819C17AD}", "القطاع": "القطاع الثاني", "الشركة_المنفذة": "عوض خليفة", "Start": "18/09/2021", "End": "28/10/2023", "GL": 172.85500000000002, "IL": 170.85500000000002, "Depth": 2.0, "قطر__المحابس": "300-100", "dimention": null, "Fault_statement": null, "بيان_اعطال_المحابس": null, "مادة_تصنيع_المحابس": null, "نوع_المحابس": null, "تاريخ_تثبيت_العداد": null, "نوع_العداد": null, "رقم_العداد": null, "قطر_العداد": null, "سعة_جهاز_قياس_التصرف": null, "مادة_صنع_الوصلات": "مواسير بي في سي", "قطر_الوصلات": null}, "geometry": {"type": "MultiPolygon", "coordinates": [[[[31.568962972261428, 30.270958160862136], [31.56891298229421, 30.270997883626332], [31.56886525370469, 30.271035810516363], [31.5689726636081, 30.271137461305653], [31.56901759699932, 30.27110175651144], [31.569070382178264, 30.271059811572275], [31.568962972261428, 30.270958160862136]]]]}}]}